code,company,old_addr,full_addr,street,house_number,zip,city,country,LatLong
518,KURSI SIA (-),"Brivibas gatve 301,LV-1006,Riga","Brīvības gatve 301, Vidzemes priekšpilsēta, Rīga, LV-1006, Latvia",Brīvības gatve,301,1006,Rīga,LV,"[56.9816685, 24.1934591]"
11704,ANKAM SIA,"Tilta iela 20-6,LV-1005,Riga","Tilta iela 20, Ziemeļu rajons, Rīga, LV-1005, Latvia",Tilta iela,20,1005,Rīga,LV,"[56.9949495, 24.1278389]"
995380,AISYTES PREKYBA EDA.V,"Zalgirio g. 6,LT-96350,Priekule","Žalgirio g. 6, Priekulė 96340, Lithuania",Žalgirio gatvė,6,96340,Priekulė,LT,"[55.5535119, 21.3223379]"
995383,AISYTES PREKYBA EDA.V,"Dvaro 32,LT-96359,Klaipedos","Dvaro g. 32, Trušeliai 91290, Lithuania",Dvaro gatvė,32,91290,Trušeliai,LT,"[55.75326, 21.2227696]"
10011,ITAB PRODUCTION Latvia SIA,"Melluzu iela 1a,,Riga","Mellužu iela 1a, Kurzemes rajons, Rīga, LV-1067, Latvia",Mellužu iela,1a,1067,Rīga,LV,"[56.9652955, 24.0302979]"
10059,CELMENI ASK SIA,"Miesnieku 1,,Kraslava","Miesnieku iela 1, Krāslava, Krāslavas pilsēta, LV-5601, Latvia",Miesnieku iela,1,5601,Krāslava,LV,"[55.89685970000001, 27.1713176]"
1010,LANKAVA (-),"Kepyklos g.17,,Alytus","Kepyklos g. 17, Alytus 62375, Lithuania",Kepyklos gatvė,17,62375,Alytus,LT,"[54.3918279, 24.0365504]"
1013,VPI  UAB (bg),"Taikos pr.10,,Visaginas","Taikos pr. 10, Visaginas 31107, Lithuania",Taikos prospektas,10,31107,Visaginas,LT,"[55.6040089, 26.432127]"
1017,ALJANTE SIA,"Puskina 13,,Riga","Puškina iela 13, Latgales priekšpilsēta, Rīga, LV-1050, Latvia",Puškina iela,13,1050,Rīga,LV,"[56.9418556, 24.1213487]"
1018,ALGISTATA (-) (ag),"Vytauto g.10,,Varena","Vytauto g. 10, Varėna 65184, Lithuania",Vytauto gatvė,10,65184,Varėna,LT,"[54.2106544, 24.5708591]"
1024,LAZDYNO RIESUTAS UAB (bg)EDA.V,"A.Rymo g.8,,Svencionys","A. Rymo g. 8, Švenčionys 18124, Lithuania",A. Rymo gatvė,8,18124,Švenčionys,LT,"[55.1328499, 26.1593446]"
1025,Egidijaus Jurkevic. EGADA EDA.V,"Dariaus ir Gireno g.4,,Lazdijai","Dariaus ir Girėno g. 4, Lazdijai 67105, Lithuania",Dariaus ir Girėno gatvė,4,67105,Lazdijai,LT,"[54.2315125, 23.5229341]"
10258,TERRA PF,"Latgales iela 78,,Rezekne","Latgales iela 78, Rēzekne, LV-4601, Latvia",Latgales iela,78,4601,Rēzekne,LV,"[56.4995914, 27.3374997]"
1026,Egidijaus Jurkevic. EGADA EDA.V,"Leipalingio 27,,Veisiejai","Leipalingio g. 27, Veisiejai 67339, Lithuania",Leipalingio gatvė,27,67339,Veisiejai,LT,"[54.1018339, 23.7056988]"
1027,BUSTO PASAULIS Prieksapmaksa,"Sviesos g.26,26105,Elektrenai","Šviesos g. 26, Elektrėnai 26122, Lithuania",Šviesos gatvė,26,26122,Elektrėnai,LT,"[54.7886901, 24.6726763]"
1030,SALEKSERA UAB (ag) EDA.V,"Parko g.14,,Vilnius","Parko g. 14, Vilnius 11207, Lithuania",Parko gatvė,14,11207,Vilnius,LT,"[54.6877479, 25.4170778]"
1032,ALYTAUS PREKYBA,"Kepyklos 9a,,Alytus","Kepyklos g. 9, Alytus 62375, Lithuania",Kepyklos gatvė,9,62375,Alytus,LT,"[54.38864909999999, 24.037725]"
1036,SILUTES AGROCHEMIJA,"Gelezinkelio 6b,LT 99148,Silute","Geležinkelio g. 6B, Šilutė 99149, Lithuania",Geležinkelio gatvė,6B,99149,Šilutė,LT,"[55.348443, 21.482695]"
1057,Bikuvos REALIZACIJA (cof)EDA.V,"Savanoriu pr. 180,LT-03154,Vilnius","Savanorių pr. 180, Vilnius 03154, Lithuania",Savanorių prospektas,180,03154,Vilnius,LT,"[54.6485881, 25.215212]"
1058,DANALTA (bg)EDA.V,"Aukstaiciu g.3,,Ignalina","Aukštaičių g. 3, Ignalina 30116, Lithuania",Aukštaičių gatvė,3,30116,Ignalina,LT,"[55.3401247, 26.1638132]"
1070,VEJMARS SIA  LBTS,"Abavas iela 31,,Kandava","Abavas iela 31, Kandava, Kandavas pilsēta, LV-3120, Latvia",Abavas iela,31,3120,Kandava,LV,"[57.04341160000001, 22.7849989]"
1076,KURSI SIA (-),"Kraslavas iela1,,Daugavpils","Krāslavas iela 1, Daugavpils, LV-5401, Latvia",Krāslavas iela,1,5401,Daugavpils,LV,"[55.87204149999999, 26.5277862]"
1079,DEPO DIY SIA (-),"K.Ulmaca gatve 96,LV-1046,Riga","Kārļa Ulmaņa gatve 96, Zemgales priekšpilsēta, Rīga, LV-1046, Latvia",Kārļa Ulmaņa gatve,96,1046,Rīga,LV,"[56.92991, 24.0163978]"
1095,KURSI SIA (-),"Kuldigas iela 69,,Saldus","Kuldīgas iela 69, Saldus, Saldus pilsēta, LV-3801, Latvia",Kuldīgas iela,69,3801,Saldus,LV,"[56.6804863, 22.4756927]"
1097,DAKO SIA  LBTS (cof),"Jupatovkas 11,LV-4600,Rezekne","Jupatovkas iela 11, Jupatovka, Griškānu pagasts, LV-4601, Latvia",Jupatovkas iela,11,4601,Jupatovka,LV,"[56.5177847, 27.3681612]"
1098,R&C A/S LBTS,"Striku iela 32,LV3800,Saldus","Striķu iela 32, Saldus, Saldus pilsēta, LV-3801, Latvia",Striķu iela,32,3801,Saldus,LV,"[56.6606769, 22.496928]"
1099,MAJA L SIA,"Jomas 2,,Jumala","Jūrmala, Latvia",Jomas 2,,2011,Jūrmala,LV,"[56.947079, 23.6168485]"
1100,ALJANTE SIA,"Kr.Barona 104,,Riga","Krišjāņa Barona iela 104, Centra rajons, Rīga, LV-1001, Latvia",Krišjāņa Barona iela,104,1001,Rīga,LV,"[56.95997329999999, 24.1394107]"
11000,KURSI SIA (-),"Kurzemes prospekts 3/1,,Riga","Kurzemes prospekts 3, Kurzemes rajons, Rīga, LV-1067, Latvia",Kurzemes prospekts,3,1067,Rīga,LV,"[56.9569024, 24.0360024]"
11003,KRUZA SIA (-) (cof),"Jurmalas gatve 89,,Riga","Jūrmalas gatve 89, Kurzemes rajons, Rīga, LV-1029, Latvia",Jūrmalas gatve,89,1029,Rīga,LV,"[56.9538253, 24.0044885]"
11004,KRUZA SIA (-) (cof),"Tinuzu  iela 2,,Riga","Tīnūžu iela 2, Latgales priekšpilsēta, Rīga, LV-1021, Latvia",Tīnūžu iela,2,1021,Rīga,LV,"[56.93482239999999, 24.2035638]"
1105,NODUS SIA  (cof),"Piebalga,LV-4122,Vecpiebalga","Piebalga, Vecpiebalga, Vecpiebalgas pagasts, LV-4122, Latvia",,,4122,Vecpiebalga,LV,"[57.0625516, 25.8082544]"
1106,LUBANAS PB SIA,"Oskara Kalpaka iela 5,LV-4830,Lubana","Oskara Kalpaka iela 5, Lubāna, Lubānas pilsēta, LV-4830, Latvia",Oskara Kalpaka iela,5,4830,Lubāna,LV,"[56.90195840000001, 26.7219481]"
1108,KAMIL PLUSS SIA (a/g),"Daugavpils iela 2,,Varaklani","Daugavpils iela 2, Varakļāni, Varakļānu pilsēta, LV-4838, Latvia",Daugavpils iela,2,4838,Varakļāni,LV,"[56.6098036, 26.7537932]"
11161,ERMITAZAS UAB REALIZACIJA,"Sausio 13 g. 1,,Vilnius","Sausio 13-osios g. 1, Vilnius 04340, Lithuania",Sausio 13-osios gatvė,1,04340,Vilnius,LT,"[54.6934974, 25.2197178]"
1120,JILLS (a/g),"1.maija laukums 3,LV-4838,Varaklani","1. maija laukums 3, Varakļāni, Varakļānu pilsēta, LV-4838, Latvia",1. maija laukums,3,4838,Varakļāni,LV,"[56.6104566, 26.7515902]"
1121,JILLS (a/g),"1.maija laukums 3,LV-4838,Varaklani","1. maija laukums 3, Varakļāni, Varakļānu pilsēta, LV-4838, Latvia",1. maija laukums,3,4838,Varakļāni,LV,"[56.6104566, 26.7515902]"
1123,VECAIS MAKSS (b/g),"18 novembra iela 104a,,Daugavpils","18. novembra iela 104, Daugavpils, LV-5404, Latvia",18. novembra iela,104,5404,Daugavpils,LV,"[55.8740323, 26.5467492]"
1125,ALEKO D Sia,"Jauna iela 2,,Daugavpils","Jaunā iela 2, Daugavpils, LV-5401, Latvia",Jaunā iela,2,5401,Daugavpils,LV,"[55.8660169, 26.5297458]"
1129,DEPO DIY SIA (-),"Noliktavu 7,LV-2130,Dreilini","Noliktavu iela 7, Dreiliņi, Stopiņu novads, LV-2130, Latvia",Noliktavu iela,7,2130,Dreiliņi,LV,"[56.93240369999999, 24.2371843]"
1130,ALJANTE SIA,"Lacplesa 112A,,Riga","Lāčplēša iela 112A, Latgales priekšpilsēta, Rīga, LV-1003, Latvia",Lāčplēša iela,112A,1003,Rīga,LV,"[56.9417231, 24.1302972]"
1133,ATIKS PRIEKSAPMAKSA,"Taribu 3,,Visaginas","Tarybų g. 3, Visaginas 31135, Lithuania",Tarybų gatvė,3,31135,Visaginas,LT,"[55.5972374, 26.4384785]"
1138,JURMALAS NAMS SIA  LBTS,"Jurkalnes iela 7,LV-2011,Jumala","Jūrkalnes iela 7, Jūrmala, LV-2011, Latvia",Jūrkalnes iela,7,2011,Jūrmala,LV,"[56.9474889, 23.6410187]"
1142,NODUS SIA  (cof),"Purteteri,,Cesis","Cēsis, Cēsu pilsēta, Latvia",,,4101,Cēsis,LV,"[57.308611, 25.2668719]"
1146,MOLE (a/g)," Jelgavas iela 43,,Daugavpils","Jelgavas iela 43, Daugavpils, LV-5404, Latvia",Jelgavas iela,43,5404,Daugavpils,LV,"[55.879414, 26.5433304]"
11507,STAMEX UAB,"Dituvos s.b,,Dituvos","Dituva Gardens Community, Bijūnų gatvė, Dituvos SB, Klaipėdos apskritis, Lietuvos Respublika, Dercekliai 96361, Lithuania",,,96361,Dercekliai,LT,"[55.5851573, 21.2507228]"
11508,BALTIJAS IZSOLU NAMS SIA,"Dzirnavu iela 4,LV-4729,Smiltene","Dzirnavu iela 4, Smiltene, Smiltenes pilsēta, LV-4729, Latvia",Dzirnavu iela,4,4729,Smiltene,LV,"[57.4336444, 25.8969953]"
11533,HOME4US Sia,"Stabu iela 58,LV-1011,Riga","Stabu iela 58, Latgales priekšpilsēta, Rīga, LV-1011, Latvia",Stabu iela,58,1011,Rīga,LV,"[56.95334709999999, 24.1342768]"
11536,FLORENTINA SIA (a/g),"Krasta 12,LV-3913,Iecava","Krasta iela 12, Iecava, Iecavas novads, LV-3913, Latvia",Krasta iela,12,3913,Iecava,LV,"[56.596475, 24.1957045]"
11547,SOLO-F SIA,"Svetes5-1,LV-3001,Jelgava","LV-3001, Latvia",Svetes 5 - 1,,3001,,LV,"[56.62316689999999, 23.7763041]"
11549,SOLO-F SIA,"Kr.Barona 93,LV-1011,Riga","Krišjāņa Barona iela 93, Centra rajons, Rīga, LV-1001, Latvia",Krišjāņa Barona iela,93,1001,Rīga,LV,"[56.9608889, 24.140072]"
11551,ATAUDZE  (ag),"1905.gada iela 4a,,Koknese","1905. gada iela 4A, Koknese, Kokneses pagasts, LV-5113, Latvia",1905. gada iela,4A,5113,Koknese,LV,"[56.6433844, 25.4320045]"
11553,ERMITAZAS UAB REALIZACIJA,"Tilzes g.227,,Siauliai","Tilžės g. 227, Šiauliai 76200, Lithuania",Tilžės gatvė,227,76200,Šiauliai,LT,"[55.9440425, 23.3288851]"
11554,ERMITAZAS UAB REALIZACIJA,"Palangos pl.16,LT-92499 ,Klaipedos","Palangos pl. 16, Sudmantai 92499, Lithuania",Palangos pl.,16,92499,Sudmantai,LT,"[55.7118233, 21.1999279]"
11564,ILGUCIEMS SIA,"Cesvaines iela 22,LV1073,Riga","Cesvaines iela 22, Latgales priekšpilsēta, Rīga, LV-1073, Latvia",Cesvaines iela,22,1073,Rīga,LV,"[56.9272699, 24.1998067]"
11570,BONUSERA Uab,"Zalgirio g. 106,LT-09300,Vilnius","Žalgirio g. 106, Vilnius 09300, Lithuania",Žalgirio gatvė,106,09300,Vilnius,LT,"[54.7033693, 25.2743879]"
11581,ITAB PRODUCTION Latvia SIA,"Melluzu iela 15-4,LV-1067,Riga","Mellužu iela 15, Kurzemes rajons, Rīga, LV-1067, Latvia",Mellužu iela,15,1067,Rīga,LV,"[56.965463, 24.028083]"
11583,NORD I SIA,"Plavinas,LV-3118,Plavinas","Pļaviņas, Pļaviņu pilsēta, Latvia",,,5120,Pļaviņas,LV,"[56.6182449, 25.725792]"
11589,Statybu baze(-)DAUNARAVIЈIAUS,"Lentvario g. 2b,,Grigskes","Lentvario g. 2B, Grigiškės 27102, Lithuania",Lentvario gatvė,2B,27102,Grigiškės,LT,"[54.673225, 25.0812098]"
11602,NORD I SIA,"Liepu iela 4,,Lapmezciems","Liepu iela 4, Lapmežciems, Lapmežciema pagasts, LV-3118, Latvia",Liepu iela,4,3118,Lapmežciems,LV,"[57.0007737, 23.5122076]"
11618,VALDIS SIA,"Ausekla 54,,Valka","Ausekļa iela 54, Valka, Valkas pilsēta, LV-4701, Latvia",Ausekļa iela,54,4701,Valka,LV,"[57.78543699999999, 26.0152111]"
11637,PALEJAS IN SIA (a/g),"Kurzemes 8e,,Jekabpils","Kurzemes iela 8e, Jēkabpils, LV-5202, Latvia",Kurzemes iela,8e,5202,Jēkabpils,LV,"[56.5039039, 25.8791407]"
11676,KURTA SIA (-),"Rigas iela 57,,Jelgava","Rīgas iela 57, Jelgava, LV-3004, Latvia",Rīgas iela,57,3004,Jelgava,LV,"[56.6702278, 23.7602067]"
11707,ANGARS SIA,"Celinieku 4a,,Riga","Ceļinieku iela 4A, Ziemeļu rajons, Rīga, LV-1005, Latvia",Ceļinieku iela,4A,1005,Rīga,LV,"[56.9959836, 24.1269373]"
11708,ATIKS PRIEKSAPMAKSA,"Taikos 80A.,,Visaginas","Taikos pr. 80A, Visaginas 31210, Lithuania",Taikos prospektas,80A,31210,Visaginas,LT,"[55.59456180000001, 26.4507193]"
11717,ELEKTRIKIS (b/g) (cof),"Petera iela 2,,Ventsplils","Pētera iela 2, Ventspils, LV-3601, Latvia",Pētera iela,2,3601,Ventspils,LV,"[57.3886631, 21.5611749]"
11718,JUPOJOS REALIZACIJA,"Raseiniu g.17,,Kelme","Raseinių g. 17, Kelmė 86189, Lithuania",Raseinių gatvė,17,86189,Kelmė,LT,"[55.6234629, 22.9462646]"
11719,BALSTS A (a/g),"Berzes 30,,Dobele","Bērzes iela 30, Dobele, Dobeles pilsēta, LV-3701, Latvia",Bērzes iela,30,3701,Dobele,LV,"[56.632289, 23.2863165]"
11757,ACTEKS SIA,"Pernavas iela 3,,Salacgriva","Pērnavas iela 3, Salacgrīva, Salacgrīvas pilsēta, LV-4033, Latvia",Pērnavas iela,3,4033,Salacgrīva,LV,"[57.7561506, 24.3596686]"
11771,SIGULDAS BјVMEISTARS A/S  LBTS,"Gales iela 23a,LV-2150,Sigulda","Gāles iela 23a, Sigulda, Siguldas pilsēta, LV-2150, Latvia",Gāles iela,23a,2150,Sigulda,LV,"[57.1438737, 24.8600251]"
11772,DEPO DIY SIA (-),"Mazrumpji,LV-2130,Dreilini","Dreiliņi, Stopiņu novads, Latvia",,,2130,Dreiliņi,LV,"[56.9347539, 24.2637789]"
11774,DEPO DIY SIA (-),"Siguldas soseja 6,LV-1024,Bergi","Siguldas šoseja 6, Berģi, Garkalnes novads, LV-1024, Latvia",Siguldas šoseja,6,1024,Berģi,LV,"[57.0019027, 24.2876247]"
11779,MARIS & Co SIA,"Skolas 1,,Lielvarde","Skolas iela 1, Lielvārde, Lielvārdes pilsēta, LV-5070, Latvia",Skolas iela,1,5070,Lielvārde,LV,"[56.7202883, 24.813616]"
11786,LASD LV SIA,"Sadovnikova 9,LV-1003,Riga","Firsa Sadovņikova iela 9, Latgales priekšpilsēta, Rīga, LV-1003, Latvia",Firsa Sadovņikova iela,9,1003,Rīga,LV,"[56.9426668, 24.1281288]"
11787,STATYBU NAMAI UAB EDA.V,"Gelezinkelio g.3,LT-68127,Marijampole","Geležinkelio g. 3, Marijampolė 68127, Lithuania",Geležinkelio gatvė,3,68127,Marijampolė,LT,"[54.5377909, 23.3481994]"
11789,STAMEX UAB,"Dariaus ir Gireno g.54,,Silale","Dariaus ir Girėno g. 54, Šilalė 75126, Lithuania",Dariaus ir Girėno gatvė,54,75126,Šilalė,LT,"[55.4860002, 22.174877]"
118,KURSI SIA (-),"Kursu iela 5,LV-2130,Dreilini","Kuršu iela 5, Dreiliņi, Stopiņu novads, LV-2130, Latvia",Kuršu iela,5,2130,Dreiliņi,LV,"[56.94434, 24.2594399]"
11800,VALDIS SIA,"Sporta iela 2a,,Balvi","Sporta iela 2A, Balvi, Balvu pilsēta, LV-4501, Latvia",Sporta iela,2A,4501,Balvi,LV,"[57.1286964, 27.2677649]"
11801,OZOLMAJAS (a/g) (cof),"Avoti,,Aluksne","Avotu iela, Alūksne, Alūksnes pilsēta, LV-4301, Latvia",Avotu iela,,4301,Alūksne,LV,"[57.414939, 27.0553732]"
11803,NORD I SIA,"Liepu 7,,Plavinas","Liepu iela 7, Pļaviņas, Pļaviņu pilsēta, LV-5120, Latvia",Liepu iela,7,5120,Pļaviņas,LV,"[56.616989, 25.7095539]"
11812,KURSI SIA (-),"Darza iela 14,,Madona","Dārza iela 14, Madona, Madonas pilsēta, LV-4801, Latvia",Dārza iela,14,4801,Madona,LV,"[56.8472345, 26.2171994]"
11813,KURSI SIA (-),"Jaunceltnes iela 40,,Aizkraukle","Jaunceltnes iela 40, Aizkraukle, Aizkraukles pilsēta, LV-5101, Latvia",Jaunceltnes iela,40,5101,Aizkraukle,LV,"[56.6050882, 25.2654847]"
11819,IG Centrs SIA,"Priezu 4,,Ciemupe","Priežu iela 4, Ciemupe, Ogresgala pagasts, LV-5041, Latvia",Priežu iela,4,5041,Ciemupe,LV,"[56.7810433, 24.6455094]"
11823,GLASSDEP SIA (a/g),"Jelgavas iela 5,LV-5404,Daugavpils","Jelgavas iela 5, Daugavpils, LV-5404, Latvia",Jelgavas iela,5,5404,Daugavpils,LV,"[55.8744209, 26.55275]"
11829,LAUKU APGADS UN MEL.prieksapmaks,"Stacijas iela 8a,LV-4337,Ape","Stacijas iela 8, Ape, Apes pilsēta, LV-4337, Latvia",Stacijas iela,8,4337,Ape,LV,"[57.5394069, 26.6937517]"
11830,JUSTS," Vienibas laukums 1a,,Ilukste","Vienības laukums 1A, Ilūkste, Ilūkstes pilsēta, LV-5447, Latvia",Vienības laukums,1A,5447,Ilūkste,LV,"[55.9778253, 26.2964142]"
11834,KURTA SIA (-),"Maza iela 1,,Saldus","Mazā iela 1, Saldus, Saldus pilsēta, LV-3801, Latvia",Mazā iela,1,3801,Saldus,LV,"[56.6768095, 22.4815734]"
11835,KEKAVAS SADZIVES SERV.CENTR(a/g),"Gaismas iela 19/9,LV-2123,Kekava","Gaismas iela 19 k-9, Ķekava, Ķekavas pagasts, LV-2123, Latvia",Gaismas iela,19 k-9,2123,Ķekava,LV,"[56.8227562, 24.2307804]"
11844,VALMITA UAB,"P.Avizonio g.4,,Pasvalys","P. Avižonio g. 4, Pasvalys 39149, Lithuania",P. Avižonio gatvė,4,39149,Pasvalys,LT,"[56.06050029999999, 24.398823]"
11859,OZOLMAJAS (a/g) (cof),"Ezera iela 5,LV-4501,Balvi","Ezera iela 5, Balvi, Balvu pilsēta, LV-4501, Latvia",Ezera iela,5,4501,Balvi,LV,"[57.13364679999999, 27.2768148]"
11863,SOLO-F SIA,"Birznieka Upisa 10,,Riga","Ernesta Birznieka-Upīša iela 10, Latgales priekšpilsēta, Rīga, LV-1050, Latvia",Ernesta Birznieka-Upīša iela,10,1050,Rīga,LV,"[56.94886709999999, 24.126718]"
11871,STAMEX UAB,"Zemaites g.53,,Gargzdai","Žemaitės g. 53, Gargždai 96124, Lithuania",Žemaitės gatvė,53,96124,Gargždai,LT,"[55.71463259999999, 21.3887997]"
11890,ARTALL(a/g),"Cietoksna 60,,Daugavpils","Cietokšņa iela 60, Daugavpils, LV-5401, Latvia",Cietokšņa iela,60,5401,Daugavpils,LV,"[55.87394190000001, 26.5175177]"
11906,DOMUS GRUPA SIA (ag),"Jupatovkas 1/2,,Rezekne","Jupatovkas iela 1/2, Rēzekne, LV-4601, Latvia",Jupatovkas iela,1/2,4601,Rēzekne,LV,"[56.5166998, 27.3527783]"
11914,DOORS SIA,"BuІІu iela 45,,Riga","Alberta iela 45, Centra rajons, Rīga, LV-1010, Latvia",Alberta iela,45,1010,Rīga,LV,"[56.95916, 24.1082723]"
11919,KURSI SIA (-),"Rupniecibas 22a,,Jelgava","Rūpniecības iela 22A, Jelgava, LV-3008, Latvia",Rūpniecības iela,22A,3008,Jelgava,LV,"[56.6370799, 23.7105215]"
11927,KURSI SIA (-),"Rupniecibas 12 a,,Cesis","Rūpniecības iela 12a, Cēsis, Cēsu pilsēta, LV-4101, Latvia",Rūpniecības iela,12a,4101,Cēsis,LV,"[57.3192864, 25.3006423]"
11930,KURSI SIA (-),"Rupniecibas 16,,Ventsplils","Rūpniecības iela 16, Ventspils, LV-3601, Latvia",Rūpniecības iela,16,3601,Ventspils,LV,"[57.3825176, 21.5908533]"
11931,O.BARES BUVMATERIALI SIA (a/g),"Rigas iela 25,,Talsi","Rīgas iela 25, Talsi, Talsu pilsēta, LV-3201, Latvia",Rīgas iela,25,3201,Talsi,LV,"[57.2390369, 22.5821677]"
11934,OZOLMAJAS (a/g) (cof),"Abrenes iela 32,,Vilaka","Abrenes iela 32, Viļaka, Viļakas pilsēta, LV-4583, Latvia",Abrenes iela,32,4583,Viļaka,LV,"[57.18153849999999, 27.6782255]"
11942,SOLO-F SIA,"Deglavas 45,,Riga","Augusta Deglava iela 45, Vidzemes priekšpilsēta, Rīga, LV-1035, Latvia",Augusta Deglava iela,45,1035,Rīga,LV,"[56.9513526, 24.1726533]"
11954,LASD LV SIA,"Sadovnikova 11,LV-1003,Riga","Firsa Sadovņikova iela 11, Latgales priekšpilsēta, Rīga, LV-1003, Latvia",Firsa Sadovņikova iela,11,1003,Rīga,LV,"[56.9425015, 24.1298291]"
12001,DZELME D SIA,"Ventspils iela 60,,Daugavpils","Ventspils iela 60, Daugavpils, LV-5404, Latvia",Ventspils iela,60,5404,Daugavpils,LV,"[55.8771279, 26.5404924]"
12003,CENUKLUBS.LV (b/g),"Melluzu iela 1,,Riga","Mellužu iela 1, Kurzemes rajons, Rīga, LV-1067, Latvia",Mellužu iela,1,1067,Rīga,LV,"[56.96631439999999, 24.029669]"
1218,GRIVA L SIA  LBTS Eda.v,"Rigas iela 33,,Livani","Rīgas iela 33, Līvāni, Līvānu pilsēta, LV-5316, Latvia",Rīgas iela,33,5316,Līvāni,LV,"[56.3465029, 26.1782144]"
12348,RASA L SIA (b/g),"Latgales 117,LV-5701,Ludza","Latgales iela 117, Ludza, Ludzas pilsēta, LV-5701, Latvia",Latgales iela,117,5701,Ludza,LV,"[56.5471093, 27.7238842]"
1235,Bikuvos REALIZACIJA (cof)EDA.V,"Ausros 38,,Utena","Aušros g. 38, Utena 28146, Lithuania",Aušros gatvė,38,28146,Utena,LT,"[55.5045058, 25.6010906]"
1239,KRISTINKI Z/S (a/g),"Meza 7,,Zilupe","Meža iela 7, Zilupe, Zilupes pilsēta, LV-5751, Latvia",Meža iela,7,5751,Zilupe,LV,"[56.3889063, 28.1193475]"
1243,ALYTAUS PREKYBA,"Rotuses aikste 10,,Alytus","Rotušės a. 10, Alytus 62137, Lithuania",Rotušės aikštė,10,62137,Alytus,LT,"[54.39658530000001, 24.0493864]"
12452,BALDONES NOVADA DOME,"Parupes iela 3,LV-2125,Baldone","Pārupes iela 3, Baldone, Baldones lauku teritorija, LV-2125, Latvia",Pārupes iela,3,2125,Baldone,LV,"[56.7390566, 24.3896572]"
12541,BALTAS NAKTIS (Mario) a/g,"Berzu iela 14,LV-2123,Balozi","Bērzu iela 14, Baloži, Baložu pilsēta, LV-2112, Latvia",Bērzu iela,14,2112,Baloži,LV,"[56.8754565, 24.1163357]"
1269,PIETALAVA SIA,"Karsavas 4,,Baltinava","Kārsavas iela 4, Baltinava, Baltinavas novads, LV-4594, Latvia",Kārsavas iela,4,4594,Baltinava,LV,"[56.945967, 27.643855]"
1271,PIETALAVA SIA,"Abrenes 7,,Vilaka","Abrenes iela 7, Viļaka, Viļakas pilsēta, LV-4583, Latvia",Abrenes iela,7,4583,Viļaka,LV,"[57.1827007, 27.6772654]"
1273,PIETALAVA SIA,"""Diena"", Semenova,LV-4586,Medneva","Semenova, Medņevas pagasts, Latvia",,,4586,Semenova,LV,"[57.1365719, 27.645743]"
1286,ALEKKO,"A.Dombrovska 30,,Riga","Augusta Dombrovska iela 23, Ziemeļu rajons, Rīga, LV-1015, Latvia",Augusta Dombrovska iela,23,1015,Rīga,LV,"[57.0315567, 24.1094133]"
12985,LASD LV SIA,"Brivibas iela 352,,Riga","Brīvības iela 352, Vidzemes priekšpilsēta, Rīga, LV-1039, Latvia",Brīvības iela,352,1039,Rīga,LV,"[56.9729158, 24.1655808]"
1302,KALVARIJOS STATYBA  (-) (bg),"Dariaus ir Gireno 86a,,Kalvarija","Dariaus ir Girėno g. 86A, Kalvarija 69206, Lithuania",Dariaus ir Girėno gatvė,86A,69206,Kalvarija,LT,"[54.4228598, 23.232827]"
1303,KURSI SIA (-),"Brivibas gatve 301,,Riga","Brīvības gatve 301, Vidzemes priekšpilsēta, Rīga, LV-1006, Latvia",Brīvības gatve,301,1006,Rīga,LV,"[56.9816685, 24.1934591]"
1310,STAMEX UAB,"Danes g.45,,Klaipedos","Danės g. 45, Klaipėda 92108, Lithuania",Danės gatvė,45,92108,Klaipėda,LT,"[55.7147354, 21.1446939]"
13131,O. Andriuskienes II-PRIEKSAPMAKS,"Tilzes pl.3,LT-72148,Taurage","Tilžės pl. 3, Tauragė 72148, Lithuania",Tilžės plentas,3,72148,Tauragė,LT,"[55.2492664, 22.2780176]"
1315,DMJ IU,"Daugavpils 31,,Aglona","Daugavpils iela 31, Aglona, Aglonas pagasts, LV-5304, Latvia",Daugavpils iela,31,5304,Aglona,LV,"[56.130762, 27.006086]"
1319,PIETALAVA SIA,"Rekovas 21,,Rekava","Rekovas iela 21, Rekova, Šķilbēnu pagasts, LV-4587, Latvia",Rekovas iela,21,4587,Rekova,LV,"[57.0417737, 27.6159719]"
1320,VIESKELIS LT UAB(BRUѕIO)(-)EDA.V,"Vytauto g.112,,Kretinga","Vytauto g. 112, Kretinga 97133, Lithuania",Vytauto gatvė,112,97133,Kretinga,LT,"[55.8867465, 21.2683757]"
1331,KURSI SIA (-),"Keizari,,Varaklani","Varakļāni, Varakļānu pilsēta, Latvia",,,4838,Varakļāni,LV,"[56.606956, 26.7599531]"
1333,ORNIKA (a/g),"Enersetikas 1,,Daugavpils","Enerģētiķu šķērsiela 1, Daugavpils, LV-5410, Latvia",Enerģētiķu šķērsiela,1,5410,Daugavpils,LV,"[55.8908016, 26.5562488]"
1335,REKS-Aitvares EDA.V,"Priestoco 17,,Svencioneliai","Priestočio g. 17, Švenčionėliai 18209, Lithuania",Priestočio gatvė,17,18209,Švenčionėliai,LT,"[55.1636834, 25.9959615]"
1338,M un V SIA prieksapmaksa,"Jelgavas iela 1B,,Kandava","Jelgavas iela 1B, Kandava, Kandavas pilsēta, LV-3120, Latvia",Jelgavas iela,1B,3120,Kandava,LV,"[57.0333621, 22.791185]"
1352,KURSI SIA (-),"Ventspils soseja 70,,Jumala","Ventspils šoseja 70, Jūrmala, LV-2011, Latvia",Ventspils šoseja,70,2011,Jūrmala,LV,"[56.9310315, 23.5887282]"
1369,Statybu baze(-)DAUNARAVIЈIAUS,"Kestucio 2,,Lentvaris","Kęstučio g. 2, Lentvaris 25124, Lithuania",Kęstučio gatvė,2,25124,Lentvaris,LT,"[54.6439843, 25.0567022]"
13697,KURSI SIA (-),"Vienibas gat. 113,,Riga","Vienības gat. 113, Zemgales priekšpilsēta, Rīga, LV-1058, Latvia",Vienības gatve,113,1058,Rīga,LV,"[56.908207, 24.0816784]"
1370,MARIS & Co SIA,"Dzelmes,Latvia,Ogre","Dzelmes, Jumprava Parish, LV-5022, Latvia",,,5022,Dzelmes,LV,"[56.6429919, 24.9175838]"
1377,RUMIDA (bg),"Gelezinkelio 19,,Lentvaris","Geležinkelio g. 19, Lentvaris 25116, Lithuania",Geležinkelio gatvė,19,25116,Lentvaris,LT,"[54.6443175, 25.0423025]"
1378,STETISKIU UKIS (-) (bg),"Matininku 20,,Panevezys","Matininkų g. 20, Panevėžys 36224, Lithuania",Matininkų gatvė,20,36224,Panevėžys,LT,"[55.7092043, 24.3683563]"
1382,ALEKO D Sia,"Kieselu iela 8/1,,Daugavpils","Daugavpils, Latvia",,,5404,Daugavpils,LV,"[55.874736, 26.536179]"
1391,RUMBA CENTRS SIA,"Tirgus 15,,Kraslava","Tirgus iela 15, Krāslava, Krāslavas pilsēta, LV-5601, Latvia",Tirgus iela,15,5601,Krāslava,LV,"[55.8950975, 27.1660857]"
1392,ALEKO D Sia,"Raipoles iela 10,,Daugavpils","Raipoles iela 10, Daugavpils, LV-5422, Latvia",Raipoles iela,10,5422,Daugavpils,LV,"[55.9008086, 26.5279321]"
1431,Bikuvos REALIZACIJA (cof)EDA.V,"Nepriklausomybes a.20,LT-42117,Rokiskis","Nepriklausomybės a. 20, Rokiškis 42117, Lithuania",Nepriklausomybės aikštė,20,42117,Rokiškis,LT,"[55.9641336, 25.5888489]"
1437,JEKABPILS LT SIA (a/g),"Brivibas iela 2B,,Jekabpils","Brīvības iela 2B, Jēkabpils, LV-5201, Latvia",Brīvības iela,2B,5201,Jēkabpils,LV,"[56.48701399999999, 25.893186]"
1442,KURSI SIA (-),"Liepajas soseja 19b,,Dobele","Liepājas šoseja 19B, Dobele, Dobeles pilsēta, LV-3701, Latvia",Liepājas šoseja,19B,3701,Dobele,LV,"[56.6314165, 23.2645382]"
1448,Egidijaus Jurkevic. EGADA EDA.V,"Vytauto 6,,Syrijai",,,,,,,
1458,PANEVEѕIO LYTAGRA UAB REALIZ EDA,"Pusaloto g.108,LT-35101,Panevezys","Pušaloto g. 108, Panevėžys 35101, Lithuania",Pušaloto gatvė,108,35101,Panevėžys,LT,"[55.7435619, 24.3379101]"
1471,RIGIELTA (a/g),"Lidonu iela 30,,Riga","Lidoņu iela 30, Kurzemes rajons, Rīga, LV-1055, Latvia",Lidoņu iela,30,1055,Rīga,LV,"[56.9692905, 24.058242]"
1481,NODUS SIA  (cof),"Piebalgas85,LV-4136,Cesis","Piebalgas iela 85, Cēsis, Cēsu pilsēta, LV-4101, Latvia",Piebalgas iela,85,4101,Cēsis,LV,"[57.3005564, 25.2972827]"
1482,DEPO DIY SIA (-),"Stacijas iela 129K,,Daugavpils","Stacijas iela 129K, Daugavpils, LV-5401, Latvia",Stacijas iela,129K,5401,Daugavpils,LV,"[55.8842176, 26.5112586]"
1501,RAMIV (a/g),"Kempes 5-NT5,,Liepaja","Liepāja, Latvia",,,3401,Liepāja,LV,"[56.5046678, 21.010806]"
1507,KURMITIS SIA- PRIEKSAPMAKSA,"Lapsu  iela 46,,Cesis","Lapsu iela 46, Cēsis, Cēsu pilsēta, LV-4101, Latvia",Lapsu iela,46,4101,Cēsis,LV,"[57.3128853, 25.2873735]"
1508,KURSI SIA (-),"Saulkrastu lauku terit., buv.veik.""Kursi,,Saulkrasti","Saulkrasti, Saulkrastu pilsēta, Latvia",,,2160,Saulkrasti,LV,"[57.2680959, 24.4150881]"
1513,IVARA MEDNA  uzґemums prieksapma,"Berzu 9,,Madona","Bērzu iela 9, Madona, Madonas pilsēta, LV-4801, Latvia",Bērzu iela,9,4801,Madona,LV,"[56.8449645, 26.2188875]"
1517,Sabavilis (-) Upes spek,"Laisves g.19/28,LT-42118,Rokiskis","Laisvės g. 19, Rokiškis 42115, Lithuania",Laisvės gatvė,19,42115,Rokiškis,LT,"[55.9612664, 25.5973999]"
1518,Sabavilis (-) Upes spek,"Respublikos g.113,,Rokiskis","Respublikos g. 113, Rokiškis 42150, Lithuania",Respublikos gatvė,113,42150,Rokiškis,LT,"[55.951969, 25.5912334]"
1526,VAKKO (b/g),"Rupniecibas iela 1,LV-3101,Tukums","Rūpniecības iela 1, Tukums, Tukuma pilsēta, LV-3101, Latvia",Rūpniecības iela,1,3101,Tukums,LV,"[56.95670070000001, 23.1626593]"
1531,IG Centrs SIA,"Skolas 4,LV-5001,Ogre","Skolas iela 4, Ogre, Ogres pilsēta, LV-5001, Latvia",Skolas iela,4,5001,Ogre,LV,"[56.8165221, 24.5984332]"
1532,IG Centrs SIA,"Rigas iela 218a,LV-5202,Jekabpils","Rīgas iela 218A, Jēkabpils, LV-5202, Latvia",Rīgas iela,218A,5202,Jēkabpils,LV,"[56.5161361, 25.85804]"
1539,PERLES M SIA (a/g),"Stacijas iela 4,LV-5316,Livani","Stacijas iela 4, Līvāni, Līvānu pilsēta, LV-5316, Latvia",Stacijas iela,4,5316,Līvāni,LV,"[56.3534825, 26.1772477]"
15678,TRAIT SIA (a/g),"Valkas iela 2o.,,Daugavpils","Valkas iela 2O, Daugavpils, LV-5417, Latvia",Valkas iela,2O,5417,Daugavpils,LV,"[55.8792526, 26.5628744]"
1572,ATIKS PRIEKSAPMAKSA,"Festivalio 1A,,Visaginas","Festivalio g. 1a, Visaginas 31142, Lithuania",Festivalio gatvė,1a,31142,Visaginas,LT,"[55.601369, 26.4215406]"
1579,ALGISTATA (-) (ag),"Laisves 23,,Varena","Laisvės g. 23, Varėna 65182, Lithuania",Laisvės gatvė,23,65182,Varėna,LT,"[54.2091327, 24.5679461]"
1586,DEPO DIY SIA (-),"Klavu 1,,Jekabpils","Kļavu iela 1, Jēkabpils, LV-5201, Latvia",Kļavu iela,1,5201,Jēkabpils,LV,"[56.4922304, 25.8869351]"
1587,STETISKIU UKIS (-) (bg),"S.Kerbedzio 21,,Panevezys","S. Kerbedžio g. 21, Panevėžys 35114, Lithuania",S. Kerbedžio gatvė,21,35114,Panevėžys,LT,"[55.7429704, 24.3782428]"
1595,STATYK PATS  REALIZACIJA,"Dariaus ir Gireno 11,,Silute","Dariaus ir Girėno g. 11, Šilutė 99132, Lithuania",Dariaus ir Girėno gatvė,11,99132,Šilutė,LT,"[55.3503418, 21.4630858]"
1597,ALEKKO,"Daugavgivas 112,,Riga","Daugavgrīvas iela 112, Kurzemes rajons, Rīga, LV-1055, Latvia",Daugavgrīvas iela,112,1055,Rīga,LV,"[56.9653101, 24.0707745]"
1628,DEPO DIY SIA (-),"Zemnieku iela 22,LV-3401,Liepaja","Zemnieku iela 22, Liepāja, LV-3401, Latvia",Zemnieku iela,22,3401,Liepāja,LV,"[56.5174496, 21.0208378]"
1629,TEHNIKA AUCE SIA (b/g),"Aspazijas lauk.9,,Auce","Aspazijas laukums 9, Auce, Auces pilsēta, LV-3708, Latvia",Aspazijas laukums,9,3708,Auce,LV,"[56.4647386, 22.8963027]"
1636,Taali Ida (Espak Jihve),"Johvi Lille 3,,Johvi","Lille 3, Jõhvi, 41536 Ida-Viru maakond, Estonia",Lille,3,41536,Jõhvi,EE,"[59.35824379999999, 27.4234193]"
1639,SIMEKS UAB (-),"Dariaus ir Gireno g.73a,,Taurage","Dariaus ir Girėno g. 73A, Tauragė 72203, Lithuania",Dariaus ir Girėno gatvė,73A,72203,Tauragė,LT,"[55.2634586, 22.3040358]"
1649,LAIMAS SIA,"Krastos,LV_2144,Ragana","Krasti, Ragana, Krimuldas pagasts, LV-2144, Latvia",,,2144,Ragana,LV,"[57.1767365, 24.7172654]"
1655,AUSEKLIS SIA,"Vienibas 48,,Karsava","Vienības iela 48, Kārsava, Kārsavas pilsēta, LV-5717, Latvia",Vienības iela,48,5717,Kārsava,LV,"[56.785643, 27.6773938]"
1675,DEPO DIY SIA (-),"Matisu soseja 6,,Valmiera","Matīšu šoseja 6, Valmiera, LV-4201, Latvia",Matīšu šoseja,6,4201,Valmiera,LV,"[57.54099050000001, 25.3995202]"
1709,RPB SIA PRIEKSAPMAKSA,"Juras 50 a,,Limbazi","Jūras iela 50a, Limbaži, Limbažu pilsēta, LV-4001, Latvia",Jūras iela,50a,4001,Limbaži,LV,"[57.51022109999999, 24.7042387]"
1710,DEPO DIY SIA (-),"Stacijas 31,LV-4601,Rezekne","Stacijas iela 31, Rēzekne, LV-4601, Latvia",Stacijas iela,31,4601,Rēzekne,LV,"[56.5173017, 27.3498814]"
1713,Bikuvos REALIZACIJA (cof)EDA.V,"Technikos g.4a,LT-40122 ,Kupiskis","Technikos g. 4A, Kupiškis 40134, Lithuania",Technikos gatvė,4A,40134,Kupiškis,LT,"[55.8315105, 24.9956049]"
1715,Bikuvos REALIZACIJA (cof)EDA.V,"Ramygalos g. 147b,LT-36220,Panevezys","Ramygalos g. 147, Panevėžys 36224, Lithuania",Ramygalos gatvė,147,36224,Panevėžys,LT,"[55.7070327, 24.3766779]"
1719,JARDS (a/g),"Rupniecibas iela 12,,Aizkraukle","Rūpniecības iela 12, Aizkraukle, Aizkraukles pilsēta, LV-5101, Latvia",Rūpniecības iela,12,5101,Aizkraukle,LV,"[56.59992639999999, 25.2451167]"
1720,JARDS (a/g),"Lacplesa iela 2A,,Aizkraukle","Lāčplēša iela 2A, Aizkraukle, Aizkraukles pilsēta, LV-5101, Latvia",Lāčplēša iela,2A,5101,Aizkraukle,LV,"[56.6004094, 25.2529352]"
1721,JARDS (a/g),"Baznicas iela 42,,Ludza","Baznīcas iela 42, Ludza, Ludzas pilsēta, LV-5701, Latvia",Baznīcas iela,42,5701,Ludza,LV,"[56.5476507, 27.7252662]"
1722,JARDS (a/g),"Raica iela 23,,Vilani","Viļāni, Viļānu pilsēta, LV-4650, Latvia",,,4650,Viļāni,LV,"[56.5501038, 26.9229659]"
1723,JARDS (a/g),"Bitenu iela 14,,Aizkraukle","Bitēnu iela 14, Aizkraukle, Aizkraukles pilsēta, LV-5101, Latvia",Bitēnu iela,14,5101,Aizkraukle,LV,"[56.6063576, 25.24836]"
1727,RIKARDA SIA ( a/g) (cof),"Krustpils iela 3,,Jekabpils","Krustpils iela 3, Jēkabpils, LV-5202, Latvia",Krustpils iela,3,5202,Jēkabpils,LV,"[56.5192098, 25.8612469]"
1759,SALTY SIA,"Flotes iela 16,,Liepaja","Flotes iela 16, Liepāja, LV-3405, Latvia",Flotes iela,16,3405,Liepāja,LV,"[56.5238241, 21.0053644]"
1781,ANGARS SIA,"Vadugucu iela 3,LV-1030,Riga","Riga, LV-1030, Latvia",,,1030,Riga,LV,"[57.0637012, 24.0776673]"
1793,JUPOJOS REALIZACIJA,"Siauliu r.Ventos g.154b,LT-81171,Kursenai","Ventos g. 154B, Kuršėnai 81171, Lithuania",Ventos gatvė,154B,81171,Kuršėnai,LT,"[55.9864058, 22.9219942]"
1803,VALDIS SIA,"Latgales 3b,,Aluksne","Latgales iela 3B, Alūksne, Alūksnes pilsēta, LV-4301, Latvia",Latgales iela,3B,4301,Alūksne,LV,"[57.4205472, 27.0529178]"
1828,MADARA 93 SIA  LBTS,"Stacijas iela 1a,LV-4001,Limbazi","Stacijas iela 1a, Limbaži, Limbažu pilsēta, LV-4001, Latvia",Stacijas iela,1a,4001,Limbaži,LV,"[57.51232859999999, 24.7232348]"
1829,MADARA 93 SIA  LBTS,"Juras 1a,,Aloja","Jūras iela 1A, Aloja, Alojas pilsēta, LV-4064, Latvia",Jūras iela,1A,4064,Aloja,LV,"[57.76650239999999, 24.8833273]"
1840,ACTEKS SIA,"Rigas iela 2,LV-4033,Salacgriva","Rīgas iela 2, Salacgrīva, Salacgrīvas pilsēta, LV-4033, Latvia",Rīgas iela,2,4033,Salacgrīva,LV,"[57.75341410000001, 24.3585494]"
1843,SEDUMI SIA (cof),"Brivibas iela 301a,LV5201,Jekabpils","Brīvības iela 301a, Jēkabpils, LV-5201, Latvia",Brīvības iela,301a,5201,Jēkabpils,LV,"[56.4989358, 25.8379802]"
1849,CELMENI ASK SIA,"Brivibas 12,,Preili","Brīvības iela 12, Preiļi, Preiļu pilsēta, LV-5301, Latvia",Brīvības iela,12,5301,Preiļi,LV,"[56.2951846, 26.7214724]"
1854,JUPOJOS REALIZACIJA,"Turgaus g.10,LT-84175,Joniskis","Turgaus g. 10, Joniškis 84172, Lithuania",Turgaus gatvė,10,84172,Joniškis,LT,"[56.22744340000001, 23.6118482]"
1859,ALYTAUS PREKYBA,"Jotvingiu g.6,,Alytus","Jotvingių g. 6, Alytus 62116, Lithuania",Jotvingių gatvė,6,62116,Alytus,LT,"[54.3962604, 24.0441797]"
1879,JUPOJOS REALIZACIJA,"Vilniaus gatve 18,,Pakruojs","Vilniaus g. 18, Pakruojis 83154, Lithuania",Vilniaus gatvė,18,83154,Pakruojis,LT,"[55.97523169999999, 23.8498009]"
1880,LAUKU APGADS UN MEL.prieksapmaks,"Dzirnavu iela  18,LV-4729,Smiltene","Dzirnavu iela 18, Smiltene, Smiltenes pilsēta, LV-4729, Latvia",Dzirnavu iela,18,4729,Smiltene,LV,"[57.43352099999999, 25.8877274]"
1882,DRUSKANA UAB,"Baravyku g.1,LT-66181,Druskininkai","Baravykų g. 1, Druskininkai 66181, Lithuania",Baravykų gatvė,1,66181,Druskininkai,LT,"[54.0042159, 23.9801622]"
1887,STAMEX UAB,"Ganykli g.18,,Palanga","Ganyklų g. 18, Palanga 00126, Lithuania",Ganyklų gatvė,18,00126,Palanga,LT,"[55.9222106, 21.0740908]"
1890,AKVEDUKTS AS,"Akvedukti,LV-2111,Krustkalni","Akvedukti, Krustkalni, Ķekavas pagasts, LV-2111, Latvia",,,2111,Krustkalni,LV,"[56.8889746, 24.1455155]"
18921,AKVEDUKTS AS,"Gaitnieku iela 12,,Gulbene","Gaitnieku iela 12, Gulbene, Gulbenes pilsēta, LV-4401, Latvia",Gaitnieku iela,12,4401,Gulbene,LV,"[57.17698249999999, 26.7591755]"
1893,OTARS SIA LBTS (ag) R/21,"Brivibas iela70,LV5301,Preili","Brīvības iela 70, Preiļi, Preiļu pilsēta, LV-5301, Latvia",Brīvības iela,70,5301,Preiļi,LV,"[56.2989827, 26.7134656]"
1899,Bikuvos REALIZACIJA (cof)EDA.V,"S.Dariaus ir S.Gireno g. 21a,LT-57149,Kedainiai","S. Dariaus ir S. Girėno g. 21A, Kėdainiai 57148, Lithuania",S. Dariaus ir S. Girėno gatvė,21A,57148,Kėdainiai,LT,"[55.3130068, 23.9773969]"
190,SALTA  BM (a/g) (cof),"Zemgales 24,,Olaine","Zemgales iela 24, Olaine, Olaines pilsēta, LV-2114, Latvia",Zemgales iela,24,2114,Olaine,LV,"[56.7850997, 23.9376897]"
1902,CENUKLUBS.LV (b/g),"Jaunmoku 13,,Riga","Jaunmoku iela 13, Zemgales priekšpilsēta, Rīga, LV-1046, Latvia",Jaunmoku iela,13,1046,Rīga,LV,"[56.931292, 24.0397034]"
1904,Bikuvos REALIZACIJA (cof)EDA.V,"Veteranu g.4,LT-31138,Visaginas","Veteranų g. 4, Visaginas 31200, Lithuania",Veteranų gatvė,4,31200,Visaginas,LT,"[55.5978866, 26.4355346]"
1906,CENUKLUBS.LV (b/g),"Brivibas 372,,Riga","Brīvības gatve, Rīga, Latvia",Brīvības gatve,,1024,Rīga,LV,"[56.986186, 24.2142937]"
1907,JURKUS IR PARTNERIAI,"Macio  3,,Telsiai","Masčio g. 3, Telšiai 87139, Lithuania",Masčio gatvė,3,87139,Telšiai,LT,"[55.9774267, 22.2637253]"
1911,BVP SIA (b/g),"Rupniecibas 11,,Jelgava","Rūpniecības iela 11, Jelgava, LV-3001, Latvia",Rūpniecības iela,11,3001,Jelgava,LV,"[56.63963409999999, 23.7256816]"
1913,KURSI SIA (-),"Zemnieku iela 60,,Liepaja","Zemnieku iela 60, Liepāja, LV-3401, Latvia",Zemnieku iela,60,3401,Liepāja,LV,"[56.5218005, 21.0277005]"
1914,DIJA P SIA,"Rezeknes 2,LV5301,Preili","Rēzeknes iela 2, Preiļi, Preiļu pilsēta, LV-5301, Latvia",Rēzeknes iela,2,5301,Preiļi,LV,"[56.2941289, 26.7250787]"
1988,ACTEKS SIA,"Ainazu 6 a,,Saulkrasti","Ainažu iela 6a, Saulkrasti, Saulkrastu pilsēta, LV-2160, Latvia",Ainažu iela,6a,2160,Saulkrasti,LV,"[57.2623177, 24.4158992]"
218,ALJANTE SIA,"Maskavas 32,,Riga","Maskavas iela 32, Latgales priekšpilsēta, Rīga, LV-1050, Latvia",Maskavas iela,32,1050,Rīga,LV,"[56.940554, 24.1213056]"
219,ALJANTE SIA,"GogoІa iela 8/10,,Riga","Alberta iela 8, Centra rajons, Rīga, LV-1010, Latvia",Alberta iela,8,1010,Rīga,LV,"[56.95921190000001, 24.1097857]"
234,CENUKLUBS.LV (b/g),"Rezeknes iela 3,LV-1073,Riga","Rēzeknes iela 3, Latgales priekšpilsēta, Rīga, LV-1073, Latvia",Rēzeknes iela,3,1073,Rīga,LV,"[56.934334, 24.174185]"
23654,NODUS SIA  (cof),"Gaujas iela 21a,LV-4125,Jaunpiebalga","Gaujas iela 21A, Jaunpiebalga, Jaunpiebalgas pagasts, LV-4125, Latvia",Gaujas iela,21A,4125,Jaunpiebalga,LV,"[57.1766625, 26.0384759]"
277,KRUZA SIA (-) (cof),"Elizabetes 37,,Riga","Elizabetes iela 37, Centra rajons, Rīga, LV-1010, Latvia",Elizabetes iela,37,1010,Rīga,LV,"[56.9576563, 24.1117947]"
279,KRUZA SIA (-) (cof),"Vaidavas 9a,,Riga","Vaidavas iela 9A, Vidzemes priekšpilsēta, Rīga, LV-1084, Latvia",Vaidavas iela,9A,1084,Rīga,LV,"[56.9625315, 24.1766682]"
294,MNL SIA,"Brivibas 43,,Ventsplils","Brīvības iela 43, Ventspils, LV-3601, Latvia",Brīvības iela,43,3601,Ventspils,LV,"[57.3843774, 21.5765684]"
321,ELEKTRIKIS (b/g) (cof),"Rupniecibas 12b,LV-3601,Ventsplils","Rūpniecības iela 12B, Ventspils, LV-3601, Latvia",Rūpniecības iela,12B,3601,Ventspils,LV,"[57.3810273, 21.5869552]"
354364,RH BUVE SIA (b/g) (cof),"Sporta iela 6,LV-5601,Kraslava","Sporta iela 6, Krāslava, Krāslavas pilsēta, LV-5601, Latvia",Sporta iela,6,5601,Krāslava,LV,"[55.8969675, 27.1824627]"
36547,CENUKLUBS.LV (b/g),"Brivibas 155/3,,Riga","Cēsu iela 3, Vidzemes priekšpilsēta, Rīga, LV-1012, Latvia",Cēsu iela,3,1012,Rīga,LV,"[56.963929, 24.1367778]"
413,KRIЈI SIA,"ROSMES,,Vecumnieki","Vecumnieki, Vecumnieki parish, LV-3933, Latvia",,,3933,Vecumnieki,LV,"[56.60624809999999, 24.5221788]"
432,SOLO-F SIA,"A.Јaka iela 105,LV-1011,Riga","Riga, LV-1011, Latvia",,,1011,Riga,LV,"[56.9527388, 24.1297471]"
454,RESURSS PLUS (a/g) R/21,"Jelgavas 11,,Preili","Jelgavas iela 11, Preiļi, Preiļu pilsēta, LV-5301, Latvia",Jelgavas iela,11,5301,Preiļi,LV,"[56.2946204, 26.732936]"
462375,GEMEGA UAB,"J.Basanaviciaus g.131A,,Siauliai","J. Basanavičiaus g. 131a, Šiauliai 76129, Lithuania",J. Basanavičiaus gatvė,131a,76129,Šiauliai,LT,"[55.9631261, 23.3167092]"
471,ADAB SIA,"Kr.Barona 32,,Ludza","Kr. Barona iela 32, Ludza, Ludzas pilsēta, LV-5701, Latvia",Kr. Barona iela,32,5701,Ludza,LV,"[56.5469173, 27.7284825]"
475,VILANU LAUKTEHNIKA (a/g),"Brivibas iela 39,,Vilani","Brīvības iela 39, Viļāni, Viļānu pilsēta, LV-4650, Latvia",Brīvības iela,39,4650,Viļāni,LV,"[56.54345000000001, 26.9264307]"
476,ARKA PLUSS SIA (a/g),"Raica iela 5,LV-4700,Valka","Valka, Valkas pilsēta, LV-4701, Latvia",,,4701,Valka,LV,"[57.776041, 26.0028389]"
483473,MAKVEZA UAB (b/g) Real.EDA.V,"Pramones g.7 ,,Siauliai","Pramonės g. 7, Šiauliai 78140, Lithuania",Pramonės gatvė,7,78140,Šiauliai,LT,"[55.91661999999999, 23.3012889]"
48525,ERMITAZAS UAB REALIZACIJA,"Baltupio g. 61A,,Vilnius","Baltupio g. 61A, Vilnius 08322, Lithuania",Baltupio gatvė,61A,08322,Vilnius,LT,"[54.7310793, 25.2676107]"
489,MARIS & Co SIA,"Parka iela 6,,Lielvarde","Parka iela 6, Lielvārde, Lielvārdes pilsēta, LV-5070, Latvia",Parka iela,6,5070,Lielvārde,LV,"[56.72086280000001, 24.7998048]"
507,RUMBA CENTRS SIA,"VaІcu 10D,LV-5401,Daugavpils","Daugavpils, LV-5401, Latvia",,,5401,Daugavpils,LV,"[55.8947286, 26.4898635]"
539,LAUKU BUVSERVISS (a/g),"Cesu 20,,Limbazi","Cēsu iela 20, Limbaži, Limbažu pilsēta, LV-4001, Latvia",Cēsu iela,20,4001,Limbaži,LV,"[57.51281880000001, 24.7184357]"
542725,MAKVEZA UAB (b/g) Real.EDA.V,"Gedimino g.54,,Taurage","Gedimino g. 54, Tauragė 72336, Lithuania",Gedimino gatvė,54,72336,Tauragė,LT,"[55.2439554, 22.3043585]"
555,CTS SIA,"Valdeku 60/1,,Riga","Valdeķu iela 60/1, Zemgales priekšpilsēta, Rīga, LV-1058, Latvia",Valdeķu iela,60/1,1058,Rīga,LV,"[56.902126, 24.0949191]"
560,MNL SIA,"Ganibu  iela 53,,Jelgava","Ganību iela 53, Jelgava, LV-3007, Latvia",Ganību iela,53,3007,Jelgava,LV,"[56.65488240000001, 23.6966608]"
563468,MAKVEZA UAB (b/g) Real.EDA.V,"K.Donelaicio g.17,,Rokiskis","K. Donelaičio g. 17, Rokiškis 42163, Lithuania",K. Donelaičio gatvė,17,42163,Rokiškis,LT,"[55.93675229999999, 25.5788994]"
563496,MAKVEZA UAB (b/g) Real.EDA.V,"Saltupes g.64,,Zarasai","Šaltupės g. 64, Zarasai 32117, Lithuania",Šaltupės gatvė,64,32117,Zarasai,LT,"[55.74552809999999, 26.2306988]"
563784,PIE KLAVAM SIA (a/g),"Darza iela 9,,Gulbene","Dārza iela 9, Gulbene, Gulbenes pilsēta, LV-4401, Latvia",Dārza iela,9,4401,Gulbene,LV,"[57.1876416, 26.7485679]"
563823,MAKVEZA UAB (b/g) Real.EDA.V,"Vilniaus g.89D ,,Ukmerge","Vilniaus g. 89d, Ukmergė 20170, Lithuania",Vilniaus gatvė,89d,20170,Ukmergė,LT,"[55.236752, 24.7778021]"
563828,MAKVEZA UAB (b/g) Real.EDA.V,"Kestucio g.20,,Telsiai","Kęstučio g. 20, Telšiai 87111, Lithuania",Kęstučio gatvė,20,87111,Telšiai,LT,"[55.9862508, 22.2501393]"
567379,MAKVEZA UAB (b/g) Real.EDA.V,"Dotnuvos g.1A,,Kedainiai","Dotnuvos g. 1A, Kėdainiai 57177, Lithuania",Dotnuvos gatvė,1A,57177,Kėdainiai,LT,"[55.2937314, 23.9763671]"
604,LATEL MONTAZA (a/g),"18.Novembra iela 6,,Rezekne","18. novembra iela 6, Rēzekne, LV-4601, Latvia",18. novembra iela,6,4601,Rēzekne,LV,"[56.5109176, 27.3250974]"
621,KURSI SIA (-),"Mezmalas iela 2,,Krustkalni","Mežmalas iela 2, Krustkalni, Ķekavas pagasts, LV-2111, Latvia",Mežmalas iela,2,2111,Krustkalni,LV,"[56.8947629, 24.1400914]"
625382,MAKVEZA UAB (b/g) Real.EDA.V,"Ateities pl. 30A ,,Kaunas","Ateities pl. 30A, Kaunas 52163, Lithuania",Ateities plentas,30A,52163,Kaunas,LT,"[54.905859, 24.0315341]"
635,RASA L SIA (b/g),"Talavijas iela 3,,Ludza","Tālavijas iela 3, Ludza, Ludzas pilsēta, LV-5701, Latvia",Tālavijas iela,3,5701,Ludza,LV,"[56.5449628, 27.7271625]"
63524,SIMEKS UAB (-),"Tilzes plentas 29,,Taurage","Tilžės pl. 29, Tauragė 72113, Lithuania",Tilžės plentas,29,72113,Tauragė,LT,"[55.2458237, 22.2637687]"
637543,ED & KO SIA,"Kudras iela 8, LV-5404,Daugavpils","Kūdras iela 8, Daugavpils, LV-5404, Latvia",Kūdras iela,8,5404,Daugavpils,LV,"[55.8693154, 26.5600762]"
643854,RED NAMU SERVISS,"Smilsu iela 6-9,LV-2112,Balozi","Smilšu iela 6, Baloži, Baložu pilsēta, LV-2112, Latvia",Smilšu iela,6,2112,Baloži,LV,"[56.8787993, 24.1201735]"
64598,NOLA-L SIA prieksapmaksa,"J.Poruka iela 1,,Cesis","Jāņa Poruka iela 1, Cēsis, Cēsu pilsēta, LV-4101, Latvia",Jāņa Poruka iela,1,4101,Cēsis,LV,"[57.316117, 25.2868719]"
66559,KU-ZILA Ezerzeme SIA (a/g),"Krustpils iela 63,,Riga","Krustpils iela 63, Latgales priekšpilsēta, Rīga, LV-1057, Latvia",Krustpils iela,63,1057,Rīga,LV,"[56.9186655, 24.2054687]"
66597,KU-ZILA Ezerzeme SIA (a/g),"Stadiona 2,,Daugavpils","Stadiona Iela 2, Daugavpils, LV-5401, Latvia",Stadiona Iela,2,5401,Daugavpils,LV,"[55.8759481, 26.5191825]"
674738,SADZIVES SANTEHNIKA SIA (a/g),"Kurzemes iela 11 k-2,LV-3101,Tukums","Kurzemes iela 11, Tukums, Tukuma pilsēta, LV-3101, Latvia",Kurzemes iela,11,3101,Tukums,LV,"[56.9713231, 23.1514909]"
674789,MAKVEZA UAB (b/g) Real.EDA.V,"Ateities g.15,,Vilnius","Ateities g. 15, Vilnius 08303, Lithuania",Ateities gatvė,15,08303,Vilnius,LT,"[54.7365439, 25.2625769]"
67871,KLAIPEDOS LYTAGRA UAB REALIZACIJ,"Silutes pl 19C,,Klaipedos","Šilutės pl. 19C, Klaipėda 91107, Lithuania",Šilutės plentas,19C,91107,Klaipėda,LT,"[55.6992716, 21.1710778]"
685494,MAKVEZA UAB (b/g) Real.EDA.V,"Vilkpedes g.12,,Vilnius","Vilkpėdės g. 12, Vilnius 03151, Lithuania",Vilkpėdės gatvė,12,03151,Vilnius,LT,"[54.66290499999999, 25.2396092]"
69798,MARA N SIA (a/g),"Asunes  iela 6,,Dagda","Asūnes iela 6, Dagda, Dagdas pilsēta, LV-5674, Latvia",Asūnes iela,6,5674,Dagda,LV,"[56.0918985, 27.5383116]"
742728,GRETSCH-UNITAS BALTIC prieksapma,"Eisiskiu pl.127,LT-06330,Vilnius","Eišiškių pl. 127, Vilnius 02184, Lithuania",Eišiškių plentas,127,02184,Vilnius,LT,"[54.62705709999999, 25.2436272]"
754257,MAKVEZA UAB (b/g) Real.EDA.V,"Tiekimo g.4,,Birzai","Tiekimo g. 4, Biržai 41128, Lithuania",Tiekimo gatvė,4,41128,Biržai,LT,"[56.1885124, 24.731768]"
756,LIKRA (a/g),"Rigas iela 230,LV-5202,Jekabpils","Rīgas iela 230, Jēkabpils, LV-5202, Latvia",Rīgas iela,230,5202,Jēkabpils,LV,"[56.5228427, 25.8459008]"
75949,AUTAVA SIA,"Sila iela 33a,LV-1057,Riga","Sila iela 33A, Latgales priekšpilsēta, Rīga, LV-1057, Latvia",Sila iela,33A,1057,Rīga,LV,"[56.9095346, 24.2232362]"
763892,MAKVEZA UAB (b/g) Real.EDA.V,"ѕemaiciu g.2 ,,Raseiniai","Raseiniai, Lithuania",,,60150,Raseiniai,LT,"[55.3819499, 23.1156129]"
765,Bikuvos REALIZACIJA (cof)EDA.V,"Parodos g. 6,LT-41136   ,Birzai","Parodos g. 6, Biržai 41136, Lithuania",Parodos gatvė,6,41136,Biržai,LT,"[56.200282, 24.7489]"
785054,MAKVEZA UAB (b/g) Real.EDA.V,"Kauno g.160,,Marijampole","Kauno g. 160, Marijampolė 68100, Lithuania",Kauno gatvė,160,68100,Marijampolė,LT,"[54.5811945, 23.3783878]"
78512,ERMITAZAS UAB REALIZACIJA,"Savanoriu pr.247,,Vilnius","Savanorių pr. 247, Vilnius 02300, Lithuania",Savanorių prospektas,247,02300,Vilnius,LT,"[54.656584, 25.1387791]"
78515,ERMITAZAS UAB REALIZACIJA,"Sausupio 15,,Vilnius","Sausupio g. 15, Vilnius 03154, Lithuania",Sausupio gatvė,15,03154,Vilnius,LT,"[54.64409449999999, 25.2236471]"
7867,Bikuvos REALIZACIJA (cof)EDA.V,"Sporto g. 9b,LT-68108,Marijampole","Sporto g. 9B, Marijampolė 68108, Lithuania",Sporto gatvė,9B,68108,Marijampolė,LT,"[54.5676017, 23.3722171]"
787,VEJMARS SIA  LBTS,"Talsu iela 78,LV-3101,Tukums","Talsu iela 78, Tukums, Tukuma pilsēta, LV-3101, Latvia",Talsu iela,78,3101,Tukums,LV,"[56.9721456, 23.1312716]"
793,JUPOJOS REALIZACIJA,"Sodo g.26,,Siauliai","Sodo g. 26, Šiauliai 76178, Lithuania",Sodo gatvė,26,76178,Šiauliai,LT,"[55.95147100000001, 23.307648]"
794,PIESPELE 1 (a/g),"Rigas iela 99,,Saulkrasti","Rīgas iela 99, Saulkrasti, Saulkrastu pilsēta, LV-2160, Latvia",Rīgas iela,99,2160,Saulkrasti,LV,"[57.2558904, 24.413826]"
796389,MAKVEZA UAB (b/g) Real.EDA.V,"Raudondvario pl.205 ,,Kaunas","Raudondvario pl. 205, Kaunas 47153, Lithuania",Raudondvario plentas,205,47153,Kaunas,LT,"[54.9190368, 23.8285759]"
796493,MAKVEZA UAB (b/g) Real.EDA.V,"Pramones g.6E ,,Silute","Pramonės g. 6e, Šilutė 99116, Lithuania",Pramonės gatvė,6e,99116,Šilutė,LT,"[55.355489, 21.469851]"
807,EMZES (a/g),"Rigas iela 54a,,Gulbene","Rīgas iela 54A, Gulbene, Gulbenes pilsēta, LV-4401, Latvia",Rīgas iela,54A,4401,Gulbene,LV,"[57.17603949999999, 26.7571029]"
807504,MAKVEZA UAB (b/g) Real.EDA.V,"Veiveriu pl.51C,,Kaunas","Veiverių g. 51C, Kaunas 46335, Lithuania",Veiverių gatvė,51C,46335,Kaunas,LT,"[54.878031, 23.894987]"
817,LIKRA (a/g),"Daugavas iela 30,,Plavinas","Daugavas iela 30, Pļaviņas, Pļaviņu pilsēta, LV-5120, Latvia",Daugavas iela,30,5120,Pļaviņas,LV,"[56.6159735, 25.7214067]"
81839,JUSTS,"Brivibas iela 1,,Ilukste","Brīvības iela 1, Ilūkste, Ilūkstes pilsēta, LV-5447, Latvia",Brīvības iela,1,5447,Ilūkste,LV,"[55.97794949999999, 26.2983771]"
829,GSK (a/g),"Rezeknes 44,LV-5601,Kraslava","Rēzeknes iela 44, Krāslava, Krāslavas pilsēta, LV-5601, Latvia",Rēzeknes iela,44,5601,Krāslava,LV,"[55.90477569999999, 27.1850509]"
847,ROKES IU (a/g),"SiІku iela 24,,Liepaja","Līgas Iela 24, Liepāja, LV-3414, Latvia",Līgas Iela,24,3414,Liepāja,LV,"[56.5460749, 21.0297571]"
852,EMZES (a/g),"Brivibas 78a,LV-4401,Gulbene","Brīvības iela 78A, Gulbene, Gulbenes pilsēta, LV-4401, Latvia",Brīvības iela,78A,4401,Gulbene,LV,"[57.1779007, 26.7435396]"
85214,LASD LV SIA,"Snikeres 31,,Riga","Sniķeres iela 31, Kurzemes rajons, Rīga, LV-1067, Latvia",Sniķeres iela,31,1067,Rīga,LV,"[56.9675559, 24.036414]"
853839,MAKVEZA UAB (b/g) Real.EDA.V,"Fabriko g.3A ,,Jonava","Fabriko g. 3A, Jonava 55111, Lithuania",Fabriko gatvė,3A,55111,Jonava,LT,"[55.0898221, 24.2791975]"
859049,VERSLO STIMULAS UAB prieksapmaks,"Lentpjuves g. 7,,Plunges","Lentpjūvės g. 7, Plungė 90118, Lithuania",Lentpjūvės gatvė,7,90118,Plungė,LT,"[55.9256871, 21.8285724]"
864237,DENANT IK,"Tirgus 8,,Kraslava","Tirgus iela 8, Krāslava, Krāslavas pilsēta, LV-5601, Latvia",Tirgus iela,8,5601,Krāslava,LV,"[55.89489829999999, 27.1668375]"
865373,SALEKSERA UAB (ag) EDA.V,"Vilniaus g. 7,,Miestelis","Vilniaus g. 7, Vilnius 01103, Lithuania",Vilniaus gatvė,7,01103,Vilnius,LT,"[54.688126, 25.2796016]"
865383,MAKVEZA UAB (b/g) Real.EDA.V,"Santakos g. 26B      ,,Alytus","Santaikos g. 26B, Alytus 62123, Lithuania",Santaikos gatvė,26B,62123,Alytus,LT,"[54.38791819999999, 24.0340402]"
867373,MAKVEZA UAB (b/g) Real.EDA.V,"Klaipedos g.170R ,,Panevezys","Klaipėdos g. 170, Panevėžys 37386, Lithuania",Klaipėdos gatvė,170,37386,Panevėžys,LT,"[55.7309205, 24.3073608]"
870,LIEPAJAS FURNITURA SIA,"Ezermalas iela 9a,LV-3401,Liepaja","Ezermalas iela 9A, Liepāja, LV-3401, Latvia",Ezermalas iela,9A,3401,Liepāja,LV,"[56.5191787, 21.029391]"
871,PALEJAS IN SIA (a/g),"Palejas iela 3,LV-5202,Jekabpils","Palejas iela 3, Jēkabpils, LV-5202, Latvia",Palejas iela,3,5202,Jēkabpils,LV,"[56.5020636, 25.8751099]"
906,A&U SIA,"Bitenu 4,LV-5101,Aizkraukle","Bitēnu iela 4, Aizkraukle, Aizkraukles pilsēta, LV-5101, Latvia",Bitēnu iela,4,5101,Aizkraukle,LV,"[56.6057615, 25.2511231]"
919,NISSI S.G. (a/g),"Nometnu 14,,Jumala","Jūrmala, Latvia",,,2011,Jūrmala,LV,"[56.947079, 23.6168485]"
934,ELDORADO PLUS  SIA,"Skolas 49,,Jumala",,,,,,,
938,PARIANAS UAB,"Kudirkos d.14,,Kursenai","V. Kudirkos g. 14, Kuršėnai 81184, Lithuania",V. Kudirkos gatvė,14,81184,Kuršėnai,LT,"[56.00696840000001, 22.9402338]"
939490,STRUCTUM SIA prieksapmaksa,"Visku iela 21U,LV-5410,Daugavpils","Višķu iela 21U, Daugavpils, LV-5410, Latvia",Višķu iela,21U,5410,Daugavpils,LV,"[55.8963318, 26.5545934]"
948349,ALVENAS SIA,"Brivibas 112,,Riga","Brīvības iela 112, Centra rajons, Rīga, LV-1001, Latvia",Brīvības iela,112,1001,Rīga,LV,"[56.9617304, 24.1345497]"
953939,MAKVEZA UAB (b/g) Real.EDA.V,"Baravyku g.1   ,,Druskininkai","Baravykų g. 1, Druskininkai 66181, Lithuania",Baravykų gatvė,1,66181,Druskininkai,LT,"[54.0042159, 23.9801622]"
955,TRYS VALETAI (-),"Plento g.43,Lt-4100,Sirvintos","Plento g. 43, Širvintos 19125, Lithuania",Plento gatvė,43,19125,Širvintos,LT,"[55.03601829999999, 24.9601298]"
961,MIDGARDAS (-),"Savanoriu 25,,Kretinga","Savanorių g. 25, Kretinga 97111, Lithuania",Savanorių gatvė,25,97111,Kretinga,LT,"[55.8931402, 21.2545563]"
964,Bikuvos REALIZACIJA (cof)EDA.V,"Basanavicus 120,,Utena","J. Basanavičiaus g. 120, Utena 28214, Lithuania",J. Basanavičiaus gatvė,120,28214,Utena,LT,"[55.5076921, 25.6289073]"
965856,OILERS SIA (a/g),"Katlakalna iela 13, k.10/3,,Riga","Katlakalna iela 13, Latgales priekšpilsēta, Rīga, LV-1073, Latvia",Katlakalna iela,13,1073,Rīga,LV,"[56.9308778, 24.2032848]"
966,Bikuvos REALIZACIJA (cof)EDA.V,"Moletu g. 96,LT-28135,Utena","Molėtų g. 96, Utena 28132, Lithuania",Molėtų gatvė,96,28132,Utena,LT,"[55.4805725, 25.578742]"
969,KURSI SIA (-),"Jelgavas 59,,Kuldiga","Jelgavas iela 59, Kuldīga, Kuldīgas pilsēta, LV-3301, Latvia",Jelgavas iela,59,3301,Kuldīga,LV,"[56.9625435, 21.9815569]"
969473,MAKVEZA UAB (b/g) Real.EDA.V,"Basanoviciaus g.6,,Utena","J. Basanavičiaus g. 6, Utena 28138, Lithuania",J. Basanavičiaus gatvė,6,28138,Utena,LT,"[55.4965979, 25.582004]"
971,Bikuvos REALIZACIJA (cof)EDA.V,"Vytauto g. 46,LT-42100 ,Rokiskis","Vytauto g. 46, Rokiškis 42100, Lithuania",Vytauto gatvė,46,42100,Rokiškis,LT,"[55.9731363, 25.5847943]"
975,Bikuvos REALIZACIJA (cof)EDA.V,"A.Vienuolio g. 32,LT-29148 ,Anuksciai","A. Vienuolio g. 32, Anykščiai 29148, Lithuania",A. Vienuolio gatvė,32,29148,Anykščiai,LT,"[55.5240172, 25.0910244]"
975854,LAUKU APGADS UN MEL.prieksapmaks,"DzelzceІa iela 14,,Gulbene","Gulbene, Gulbenes pilsēta, Latvia",,,4401,Gulbene,LV,"[57.1714821, 26.7522536]"
978505,SIAULIU LYRA UAB b/g)real.EDA.V,"Vitauta g.122,LT-76341,Siaulium","Vytauto g. 122, Šiauliai 76341, Lithuania",Vytauto gatvė,122,76341,Šiauliai,LT,"[55.9323249, 23.3047899]"
980,VPI  UAB (bg),"Parko g.7,LT-31001,Visaginas","Parko g. 7, Visaginas 31130, Lithuania",Parko gatvė,7,31130,Visaginas,LT,"[55.59813810000001, 26.4238898]"
980001,LAUKU APGADS UN MEL.prieksapmaks,"Rigas iela 54,,Saulkrasti","Rīgas iela 54, Saulkrasti, Saulkrastu pilsēta, LV-2160, Latvia",Rīgas iela,54,2160,Saulkrasti,LV,"[57.24362009999999, 24.4028821]"
981,Bikuvos REALIZACIJA (cof)EDA.V,"Uzpaliu g. 81,LT-28198,Utena","Užpalių g. 81, Utena 28198, Lithuania",Užpalių gatvė,81,28198,Utena,LT,"[55.5095335, 25.6117722]"
983,Bikuvos REALIZACIJA (cof)EDA.V,"Lietavos g. 10,LT-55140,Jonava","Lietavos g. 10, Jonava 55124, Lithuania",Lietavos gatvė,10,55124,Jonava,LT,"[55.0836866, 24.2758545]"
984,Bikuvos REALIZACIJA (cof)EDA.V,"Deltuvos g. 33b,LT-20126,Ukmerge","Deltuvos g. 33B, Ukmergė 20127, Lithuania",Deltuvos gatvė,33B,20127,Ukmergė,LT,"[55.24612029999999, 24.7412753]"
985704,MAKVEZA UAB (b/g) Real.EDA.V,"Silutes pl.83A,,Klaipedos","Šilutės pl. 83, Klaipėda 94101, Lithuania",Šilutės plentas,83,94101,Klaipėda,LT,"[55.6809463, 21.1889219]"
985848,MAKVEZA UAB (b/g) Real.EDA.V,"Veteranu g. 11,,Visaginas","Veteranų g. 11, Visaginas 31114, Lithuania",Veteranų gatvė,11,31114,Visaginas,LT,"[55.5993157, 26.4358879]"
985944,JUPOJOS REALIZACIJA,"V. Kudirkos 21,LT-85145,Akemene","V. Kudirkos g. 21, Naujoji Akmenė 85145, Lithuania",V. Kudirkos gatvė,21,85145,Naujoji Akmenė,LT,"[56.3177204, 22.8861071]"
987097,ELEKTRIKIS (b/g) (cof),"Elektriku  iela 8,LV-3601,Ventsplils","Elektriķu iela, Ventspils, LV-3601, Latvia",Elektriķu iela,,3601,Ventspils,LV,"[57.38231940000001, 21.5882176]"
98712,KU-ZILA Ezerzeme SIA (a/g),"Maskavas iela 450c,,Riga","Maskavas iela 450C, Latgales priekšpilsēta, Rīga, LV-1063, Latvia",Maskavas iela,450C,1063,Rīga,LV,"[56.8841735, 24.2332102]"
987149,ERMITAZAS UAB REALIZACIJA,"Galines g. 1,,Gailines","Galinės g. 1, Galinė 14247, Lithuania",Galinės gatvė,1,14247,Galinė,LT,"[54.8056985, 25.1621305]"
987157,Bikuvos REALIZACIJA (cof)EDA.V,"Pergales g. 2,LT-26127 ,Elektrenai","Pergalės g. 2, Elektrėnai 26128, Lithuania",Pergalės gatvė,2,26128,Elektrėnai,LT,"[54.7869195, 24.6822882]"
987167,ERMITAZAS UAB REALIZACIJA,"Ozo.g. 25,LT-07150,Vilnius","Ozo g. 25, Vilnius 08217, Lithuania",Ozo gatvė,25,08217,Vilnius,LT,"[54.7119975, 25.2604464]"
987170,PADARYK PATS UAB (a/g)EDA.V,"Virsuliskiu 42,,Vilnius","Viršuliškių g. 42, Vilnius 05112, Lithuania",Viršuliškių gatvė,42,05112,Vilnius,LT,"[54.7081037, 25.2277771]"
987191,DEPO DIY SIA (-),"Krasta iela 36,,Riga","Krasta iela 36, Latgales priekšpilsēta, Rīga, LV-1003, Latvia",Krasta iela,36,1003,Rīga,LV,"[56.9335417, 24.1488428]"
987198,SIAULIU LYRA UAB b/g)real.EDA.V,"Pramones 23 D,,Siauliai","Pramonės g. 23, Šiauliai 78136, Lithuania",Pramonės gatvė,23,78136,Šiauliai,LT,"[55.9066185, 23.3248276]"
987200,SIAULIU LYRA UAB b/g)real.EDA.V,"Lyros 13,,Siauliai","Lyros g. 13, Šiauliai 78275, Lithuania",Lyros gatvė,13,78275,Šiauliai,LT,"[55.9144809, 23.2598156]"
987204,SOLO-F SIA,"GogoІa iela 21,,Riga","Riga, Latvia",,,1050,Riga,LV,"[56.9496487, 24.1051865]"
987229,DEPO DIY SIA (-),"Noliktavu iela 9,LV-2130,Dreilini","Noliktavu iela 9, Dreiliņi, Stopiņu novads, LV-2130, Latvia",Noliktavu iela,9,2130,Dreiliņi,LV,"[56.9308201, 24.2367423]"
987241,CENUKLUBS.LV (b/g),"Vienibas gatve 113,,Riga","Vienības gat. 113, Zemgales priekšpilsēta, Rīga, LV-1058, Latvia",Vienības gatve,113,1058,Rīga,LV,"[56.908207, 24.0816784]"
987242,CENUKLUBS.LV (b/g),"Rigas iela 8,,Talsi","Rīgas iela 8, Talsi, Talsu pilsēta, LV-3201, Latvia",Rīgas iela,8,3201,Talsi,LV,"[57.2349549, 22.5845154]"
989,HENIS SIA (elektriba),"Saules iela 57,,Madona","Saules iela 57, Madona, Madonas pilsēta, LV-4801, Latvia",Saules iela,57,4801,Madona,LV,"[56.8612453, 26.228249]"
992,ELMONTERA UAB,"K.Kasakausko 27 D,85367,Akmene","K. Kasakausko g. 27D, Akmenė 85389, Lithuania",K. Kasakausko gatvė,27D,85389,Akmenė,LT,"[56.24473709999999, 22.7531906]"
994938,ESPAK TALLIN AS,"Viadukti 42,11313,Tallinn","Viadukti 42, 11313 Tallinn, Estonia",Viadukti,42,11313,Tallinn,EE,"[59.4162967, 24.7587383]"
994965,Bikuvos REALIZACIJA (cof)EDA.V,"Vytauto g. 76A,,LT-81146,Kursenai","Vytauto g. 76a, Kuršėnai 81189, Lithuania",Vytauto gatvė,76a,81189,Kuršėnai,LT,"[56.01277839999999, 22.9468431]"
994986,RUVAR SIA,"Raina iela 10,LV-4601,Rezekne","Raiņa iela 10, Rēzekne, LV-4601, Latvia",Raiņa iela,10,4601,Rēzekne,LV,"[56.5069961, 27.3376669]"
995009,AUSEKLIS SIA,"Vienibas 58,,Karsava","Vienības iela 58, Kārsava, Kārsavas pilsēta, LV-5717, Latvia",Vienības iela,58,5717,Kārsava,LV,"[56.7838632, 27.6807247]"
995018,VERSLO STIMULAS UAB prieksapmaks,"Gandigos g. 3a,,Plunges",,,,,,,
995025,KURSI SIA (-),"Zviedru iela 6,,Salaspils","Zviedru iela 6, Salaspils, Salaspils pilsēta, LV-2121, Latvia",Zviedru iela,6,2121,Salaspils,LV,"[56.8532774, 24.325973]"
995036,TRAIT SIA (a/g),"Bauskas 105a,,Daugavpils","Bauskas iela 105A, Daugavpils, LV-5417, Latvia",Bauskas iela,105A,5417,Daugavpils,LV,"[55.88033979999999, 26.5611539]"
995071,MAKVEZA UAB (b/g) Real.EDA.V,"Novocebes k. 3,LT-57344,Kedainiai","57344, Lithuania",,,57344,,LT,"[55.269097, 23.9356838]"
995080,DEPO DIY LT UAB,"Silutes pl. 28,91177,Klaipedos","Šilutės pl. 28, Klaipėda 91177, Lithuania",Šilutės plentas,28,91177,Klaipėda,LT,"[55.693979, 21.174003]"
995102,GEMEGA UAB,"Liejyklos g.14,78148,Siauliai","Liejyklos g. 14, Šiauliai 78155, Lithuania",Liejyklos gatvė,14,78155,Šiauliai,LT,"[55.9116279, 23.2966584]"
995104,MAKVEZA UAB (b/g) Real.EDA.V,"Pergales g.36,,Vilnius","Pergalės g. 36, Grigaičiai 11236, Lithuania",Pergalės gatvė,36,11236,Grigaičiai,LT,"[54.67469, 25.4142664]"
995111,ANGARS SIA,"Bakas iela 13,,Mangalsala","Bākas iela 13, Ziemeļu rajons, Rīga, LV-1030, Latvia",Bākas iela,13,1030,Rīga,LV,"[57.0534072, 24.0701867]"
995113,INTARIO SIA (ag) prieksapmaksa,"Jankalna iela 48,LV-4301,Aluksne","Jāņkalna iela 48, Alūksne, Alūksnes pilsēta, LV-4301, Latvia",Jāņkalna iela,48,4301,Alūksne,LV,"[57.41401579999999, 27.0450141]"
995117,EMZES (a/g),"Veca Sarmes 3,,Limbazi","Vecā Sārmes iela 3, Limbaži, Limbažu pilsēta, LV-4001, Latvia",Vecā Sārmes iela,3,4001,Limbaži,LV,"[57.51410199999999, 24.7181043]"
995143,ERMITAZAS UAB REALIZACIJA,"Plento g. 3,LT-55195,Jonava","Plento g. 3, Jonava 55195, Lithuania",Plento gatvė,3,55195,Jonava,LT,"[55.0660015, 24.2830822]"
995144,Bikuvos REALIZACIJA (cof)EDA.V,"Gluosniu g. 4B,LT-99116,Silute","Gluosnių g. 4B, Šilutė 99116, Lithuania",Gluosnių gatvė,4B,99116,Šilutė,LT,"[55.3498757, 21.4676592]"
995168,KURSI SIA (-),"Krasta iela 52,,Riga","Krasta iela 52, Latgales priekšpilsēta, Rīga, LV-1003, Latvia",Krasta iela,52,1003,Rīga,LV,"[56.9335417, 24.1488428]"
995169,LASD LV SIA,"Slokas iela 33,,Riga","Slokas iela 33, Zemgales priekšpilsēta, Rīga, LV-1048, Latvia",Slokas iela,33,1048,Rīga,LV,"[56.9491142, 24.0709834]"
995177,DEMITOL OU,"Kangelaste prospekt 3a,20305,Narva","Kangelaste prospekt 3a, 20305 Narva, Estonia",Kangelaste prospekt,3a,20305,Narva,EE,"[59.3814753, 28.1806567]"
995188,DEPO DIY LT UAB,"Klaipedos g. 145,LT-37373,Panevezys","Klaipėdos g. 145, Panevėžys 37375, Lithuania",Klaipėdos gatvė,145,37375,Panevėžys,LT,"[55.7304421, 24.3043194]"
995200,BUSTO PASAULIS Prieksapmaksa,"Sabaliskiu 2A,,Elektrenai","Sabališkių g. 2A, Elektrėnai 26128, Lithuania",Sabališkių gatvė,2A,26128,Elektrėnai,LT,"[54.7847099, 24.6881329]"
995212,DAIVAN SIA prieksapmaksa,"Bauskas iela 16C,LV-1004,Riga","Bauskas iela 16c, Zemgales priekšpilsēta, Rīga, LV-1004, Latvia",Bauskas iela,16c,1004,Rīga,LV,"[56.9225749, 24.0962507]"
995217,Bikuvos REALIZACIJA (cof)EDA.V,"Skuodo g.7,LT-89145,Mazeikiai","Skuodo g. 7, Mažeikiai 89145, Lithuania",Skuodo gatvė,7,89145,Mažeikiai,LT,"[56.3105881, 22.3188577]"
995218,ERMITAZAS UAB REALIZACIJA,"Vytauto str. 115,LT- 20186,Ukmerge","Vytauto g., Ukmergė 20186, Lithuania",Vytauto gatvė,,20186,Ukmergė,LT,"[55.2598675, 24.7902561]"
995270,RH BUVE SIA (b/g) (cof),"Sporta iela 6,LV-5601,Kraslava","Sporta iela 6, Krāslava, Krāslavas pilsēta, LV-5601, Latvia",Sporta iela,6,5601,Krāslava,LV,"[55.8969675, 27.1824627]"
995285,ARTALL(a/g),"Cietoksna 70,,Daugavpils","Cietokšņa iela 70, Daugavpils, LV-5401, Latvia",Cietokšņa iela,70,5401,Daugavpils,LV,"[55.8765089, 26.514614]"
995289,LAT COSMETICS SIA (Elmarket),"Rupniecibas 2,,Ludza","Rūpniecības iela 2, Ludza, Ludzas pilsēta, LV-5701, Latvia",Rūpniecības iela,2,5701,Ludza,LV,"[56.5428407, 27.7001498]"
995309,OZOLMAJAS (a/g) (cof),"Rupniecibas iela 8b,,Aluksne","Rūpniecības iela 8B, Alūksne, Alūksnes pilsēta, LV-4301, Latvia",Rūpniecības iela,8B,4301,Alūksne,LV,"[57.4297611, 27.0249598]"
995321,DEPO DIY LT UAB,"Maksimiskiu g. 5,LT-02300,Vilnius","Maksimiškių g. 5, Vilnius 02300, Lithuania",,,02300,Vilnius,LT,"[54.66932389999999, 25.1747813]"
995324,MAKVEZA UAB (b/g) Real.EDA.V,"Vytauto g. 183,,Kaunas","Vytauto g. 183, Teleičiai 53203, Lithuania",Vytauto gatvė,183,53203,Teleičiai,LT,"[54.84195, 23.8789709]"
995330,ESPAK TALLIN AS,"Papiniidu tn 4,80042,Parnu","Tallinn–Pärnu–Ikla & Papiniidu, Pärnu, 80042 Pärnu maakond, Estonia",,,80042,Pärnu,EE,"[58.3706533, 24.5481859]"
995331,ESPAK TALLIN AS,"Rahu 36a,,Narva","Rahu 36a, 20604 Narva, Estonia",Rahu,36a,20604,Narva,EE,"[59.3917314, 28.1724124]"
995335,TEHNIKIS 96 SIA,"Cietoksna 8-1a,LV-5401,Daugavpils","Cietokšņa iela 8, Daugavpils, LV-5401, Latvia",Cietokšņa iela,8,5401,Daugavpils,LV,"[55.867408, 26.5240643]"
995341,ESPAK TALLIN AS,"Reinu tee 35,,Viljandi","Reinu tee 35, Viljandi, 71020 Viljandi maakond, Estonia",Reinu tee,35,71020,Viljandi,EE,"[58.3505202, 25.5705248]"
995345,DEPO DIY LT UAB,"Ukmerges g. 373,,Vilnius","Ukmergės g. 373, Vilnius 12107, Lithuania",Ukmergės Gatvė,373,12107,Vilnius,LT,"[54.7412369, 25.2267969]"
995351,Rutka IK,"Skolas iela 1a,,Dagda","Skolas iela 1A, Dagda, Dagdas pilsēta, LV-5674, Latvia",Skolas iela,1A,5674,Dagda,LV,"[56.0943638, 27.5411441]"
995352,Rutka IK,"Daugavpils iela 3,,Dagda","Daugavpils iela 3, Dagda, Dagdas pilsēta, LV-5674, Latvia",Daugavpils iela,3,5674,Dagda,LV,"[56.0959727, 27.5414714]"
995353,SOLO-F SIA,"Caunes iela 1a,,Riga","Caunes iela 1a, Vidzemes priekšpilsēta, Rīga, LV-1006, Latvia",Caunes iela,1a,1006,Rīga,LV,"[56.9797522, 24.1859758]"
995355,MASTER DEVELOPMENT,"SALNAS 5-56,,Salnas","Salnas iela 5, Latgales priekšpilsēta, Rīga, LV-1021, Latvia",Salnas iela,5,1021,Rīga,LV,"[56.9429749, 24.2195176]"
995357,RASA L SIA (b/g),"Vienibas iela 40,LV-5717,Karsava","Vienības iela 40, Kārsava, Kārsavas pilsēta, LV-5717, Latvia",Vienības iela,40,5717,Kārsava,LV,"[56.78701179999999, 27.6736618]"
995358,RASA L SIA (b/g),"Brivibas iela 17,LV-5751,Zilupe","Brīvības iela 17, Zilupe, Zilupes pilsēta, LV-5751, Latvia",Brīvības iela,17,5751,Zilupe,LV,"[56.3867699, 28.1223374]"
995359,LANKAVA (-),"Vytauto g. 45,64139,Daugai","Vytauto g. 45, Daugai 64142, Lithuania",Vytauto gatvė,45,64142,Daugai,LT,"[54.3591712, 24.3428304]"
995363,TERRA PF,"Bukmuizas 1,,Rezekne","Bukmuižas iela 1, Rēzekne, LV-4601, Latvia",Bukmuižas iela,1,4601,Rēzekne,LV,"[56.4995537, 27.3372251]"
995365,VAIREMA Prieksapm+transport!,"Kurzemes pr.23,LV-1067,Riga","Kurzemes prospekts 23, Kurzemes rajons, Rīga, LV-1067, Latvia",Kurzemes prospekts,23,1067,Rīga,LV,"[56.9637068, 24.0307389]"
995366,DEPO DIY LT UAB,"Vakarinis aplinkkelis 8,LT-48182,Kaunas","Vakarinis aplinkl. 8, Kaunas 48182, Lithuania",Vakarinis aplinkkelis,8,48182,Kaunas,LT,"[54.9356748, 23.8703761]"
995368,Statybu baze(-)DAUNARAVIЈIAUS,"Vokes g. 2A,,Lentvaris","Vokės g. 2, Lentvaris 25124, Lithuania",Vokės gatvė,2,25124,Lentvaris,LT,"[54.6440289, 25.0542787]"
995369,MAKVEZA UAB (b/g) Real.EDA.V,"Skuodo g. 41,LT- 89143,Mazeikiai","Skuodo g. 41, Mažeikiai 89100, Lithuania",Skuodo gatvė,41,89100,Mažeikiai,LT,"[56.3135881, 22.3052052]"
995371,UHB SERVICE,"Plento g. 92,LT-19126,Sirvintos","Plento g. 92, Širvintos 19126, Lithuania",Plento gatvė,92,19126,Širvintos,LT,"[55.03249959999999, 24.9695532]"
995374,GEMEGA UAB,"Liejyklos str. 14,LT 78148,Siauliai","Liejyklos g. 14, Šiauliai 78155, Lithuania",Liejyklos gatvė,14,78155,Šiauliai,LT,"[55.9116279, 23.2966584]"
995377,JUZEFOS GECIENES IMONE prieksapm,"Dariaus ir Gireno g. 10A,LT-75135,Silale","Dariaus ir Girėno g. 10A, Šilalė 75136, Lithuania",Dariaus ir Girėno gatvė,10A,75136,Šilalė,LT,"[55.4910685, 22.1802518]"
995378,HEDAGRAS UAB EDA.V,"V.Kudirkos g.1a,LT-81184,Kursenai","V. Kudirkos g. 1A, Kuršėnai 81184, Lithuania",V. Kudirkos gatvė,1A,81184,Kuršėnai,LT,"[56.0078693, 22.9391437]"
995379,R PAULAUSKO IMONE,"Dariaus ir Gireno g.6,LT-99383,Sveksna","Dariaus ir Girėno gatvė 6, Švėkšna 99383, Lithuania",Dariaus ir Girėno gatvė,6,99383,Švėkšna,LT,"[55.516268, 21.6252077]"
995381,FORMICA GROUP EDA.V,"Silutes pl.27,LT-91107,Klaipedos","Šilutės pl. 27, Klaipėda 91107, Lithuania",Šilutės plentas,27,91107,Klaipėda,LT,"[55.69760549999999, 21.1727417]"
995382,PASKA EDA.V,"Nemuno g.35,LT-74486,Jurbarko","Nemuno g. 35, Skirsnemunė 74486, Lithuania",Nemuno gatvė,35,74486,Skirsnemunė,LT,"[55.091651, 22.9044304]"
995384,BUVERTA PRIEKSAPMAKSA,"Rusonu iela 28,,Riga","Rušonu iela 28, Latgales priekšpilsēta, Rīga, LV-1057, Latvia",Rušonu iela,28,1057,Rīga,LV,"[56.9153512, 24.185941]"
995386,DELMER,"Ilukstes iela 44-60,LV-1082,Riga","Ilūkstes iela 44, Vidzemes priekšpilsēta, Rīga, LV-1082, Latvia",Ilūkstes iela,44,1082,Rīga,LV,"[56.9489241, 24.1987801]"
995387,HARINGA,"Maironio g. 159,,Radviliskis","Maironio g. 159, Radviliškis 82129, Lithuania",Maironio gatvė,159,82129,Radviliškis,LT,"[55.7975118, 23.5712772]"
995388,ALEKKO,"Melidas iela 11,,Riga","Melīdas iela 11, Ziemeļu rajons, Rīga, LV-1015, Latvia",Melīdas iela,11,1015,Rīga,LV,"[57.0319887, 24.1107389]"
995392,SOLO-F SIA,"Kr. Valdemara 147,,Riga","Krišjāņa Valdemāra iela 147, Vidzemes priekšpilsēta, Rīga, LV-1013, Latvia",Krišjāņa Valdemāra iela,147,1013,Rīga,LV,"[56.9720454, 24.1340176]"
995393,SCANPREKYBA UAB,"Algirdo g. 7A,LT-74138,Jurbarkas","Algirdo g. 7A, Jurbarkas 74151, Lithuania",Algirdo gatvė,7A,74151,Jurbarkas,LT,"[55.08741819999999, 22.7720568]"
995395,KEMIDA   MB prieksapmaksa,"Draugystes g. 19D,LT-51230,Kaunas","Draugystės g. 19d, Kaunas 51230, Lithuania",Draugystės gatvė,19d,51230,Kaunas,LT,"[54.9064746, 24.0048682]"
995399,Taurakalnis UAB,"Tauro str. 5-1,LT-03106,Vilnius","Tauro g. 5, Vilnius 03106, Lithuania",Tauro gatvė,5,03106,Vilnius,LT,"[54.6836056, 25.2732597]"
995402,ERMITAZAS UAB REALIZACIJA,"Raudondvario pl.131,LT-47191,Kaunas","Raudondvario pl. 131, Kaunas 47191, Lithuania",Raudondvario plentas,131,47191,Kaunas,LT,"[54.9099185, 23.8496523]"
995406,ERMITAZAS UAB REALIZACIJA,"Pramones pr, 6B, LT-51267,Kaunas","Pramonės pr. 6b, Kaunas 51267, Lithuania",Pramonės prospektas,6b,51267,Kaunas,LT,"[54.9082684, 23.9835522]"
995408,SIMBA I&K Sia Prieksapmaksa,"Dzirnavu iela 129,LV1050,Riga","Dzirnavu iela 129, Latgales priekšpilsēta, Rīga, LV-1050, Latvia",Dzirnavu iela,129,1050,Rīga,LV,"[56.9475844, 24.1264729]"
995409,VIKRI K,"Nakotnes iela 1,,Kekava","Nākotnes iela 1, Ķekava, Ķekavas pagasts, LV-2123, Latvia",Nākotnes iela,1,2123,Ķekava,LV,"[56.8279018, 24.2389256]"
995410,ESPAK TALLIN AS,"Kubja tee 36,35603,Voru","Kubja tee 36, Võlsi, 65603 Võru maakond, Estonia",Kubja tee,36,65603,Võlsi,EE,"[57.820899, 26.9987454]"
995411,Brali PLUS Sia prieksapmaksa,"Bangu iela 2,LV-3264,Roja","Bangu iela 2, Roja, Rojas pagasts, LV-3264, Latvia",Bangu iela,2,3264,Roja,LV,"[57.504375, 22.8108766]"
995413,MAKVEZA UAB (b/g) Real.EDA.V,"Pilkalnio g. 3,LT-06232,Vilnius","Pilkalnio g. 3, Vilnius 06200, Lithuania",Pilkalnio gatvė,3,06200,Vilnius,LT,"[54.7080284, 25.1646976]"
995414,ITAB Shop Concept Latvia  Sia,"Kleistu iela 18a-2,LV-1067,Riga","Kleistu iela 18a, Kurzemes rajons, Rīga, LV-1067, Latvia",Kleistu iela,18a,1067,Rīga,LV,"[56.9661827, 24.0279386]"
995415,ITAB Shop Concept Latvia  Sia,"Melluzu iela 15-4,LV-1067,Riga","Mellužu iela 15, Kurzemes rajons, Rīga, LV-1067, Latvia",Mellužu iela,15,1067,Rīga,LV,"[56.965463, 24.028083]"
995416,KURZEMES ATSLEGA,"Kalvenes -27,LV-3456,Aizpute","Kalvenes iela, Aizpute, Aizputes pilsēta, LV-3456, Latvia",Kalvenes iela,,3456,Aizpute,LV,"[56.7112415, 21.617508]"
